{"type": "FeatureCollection", "features": [{"type": "Feature", "geometry": {"type": "Polygon", "coordinates": [[[-104.6777729, 39.8632298], [-104.677772, 39.8631887], [-104.6777704, 39.8629581], [-104.6777159, 39.862956], [-104.6774797, 39.8629468], [-104.6766748, 39.862941], [-104.6764022, 39.8629402], [-104.6763981, 39.8629175], [-104.6763099, 39.8629167], [-104.6762543, 39.862917], [-104.6762539, 39.8628613], [-104.676017, 39.8628596], [-104.6756862, 39.8628588], [-104.675686, 39.8628919], [-104.6756368, 39.8628924], [-104.6754161, 39.8628918], [-104.674971, 39.8628898], [-104.67453, 39.8628891], [-104.6743452, 39.862891], [-104.6743442, 39.8627938], [-104.6742388, 39.8627954], [-104.6742374, 39.8628184], [-104.6741112, 39.8628187], [-104.6739642, 39.862699], [-104.6739645, 39.8626162], [-104.6738694, 39.8626173], [-104.673813, 39.8625576], [-104.6735964, 39.8625544], [-104.6735177, 39.8626187], [-104.6734169, 39.8626187], [-104.6734126, 39.8626946], [-104.6732783, 39.8628031], [-104.6731516, 39.8628071], [-104.6731504, 39.8627927], [-104.6730377, 39.8627918], [-104.6730387, 39.8628938], [-104.6729604, 39.8628934], [-104.67273, 39.8628943], [-104.672304, 39.8628934], [-104.6718534, 39.8628861], [-104.6716694, 39.8628822], [-104.671667, 39.8628415], [-104.6715536, 39.8628399], [-104.671553, 39.8628578], [-104.6713419, 39.8628549], [-104.6712548, 39.8628541], [-104.6712533, 39.8628365], [-104.6711355, 39.8628334], [-104.6711417, 39.8628804], [-104.6710984, 39.8628798], [-104.671025, 39.8628795], [-104.6710257, 39.8628636], [-104.6707446, 39.8628617], [-104.6702878, 39.8628582], [-104.669987, 39.8628564], [-104.6699296, 39.8628564], [-104.6699306, 39.8628467], [-104.6692748, 39.8628414], [-104.6692735, 39.8628511], [-104.6691624, 39.862845], [-104.6691093, 39.8628421], [-104.668765, 39.8628435], [-104.668248, 39.8628384], [-104.668023, 39.8628384], [-104.6679591, 39.8628371], [-104.6679603, 39.8628194], [-104.6673133, 39.8628144], [-104.6673132, 39.8628386], [-104.6671158, 39.8628359], [-104.6670535, 39.8628351], [-104.6667206, 39.8628308], [-104.666524, 39.8628298], [-104.666524, 39.8628408], [-104.6665238, 39.8628957], [-104.666427, 39.8628961], [-104.6664266, 39.8629118], [-104.6664256, 39.8629527], [-104.6664231, 39.8630563], [-104.6664223, 39.8630871], [-104.6664224, 39.8631078], [-104.6665107, 39.8631086], [-104.6665103, 39.8631836], [-104.6665099, 39.8632012], [-104.66652, 39.8632128], [-104.6667947, 39.8632118], [-104.6671176, 39.8632139], [-104.6672946, 39.863215], [-104.6673448, 39.8632138], [-104.6673442, 39.8632372], [-104.6678452, 39.8632384], [-104.6679371, 39.8632406], [-104.6679397, 39.8632214], [-104.668224, 39.863225], [-104.6687329, 39.863225], [-104.6691646, 39.86323], [-104.669254, 39.863231], [-104.6692906, 39.8632303], [-104.6692935, 39.8632534], [-104.6698849, 39.8632521], [-104.6698838, 39.8632318], [-104.669911, 39.8632313], [-104.6703113, 39.8632339], [-104.6707967, 39.8632366], [-104.670863, 39.863237], [-104.6710259, 39.863238], [-104.6710229, 39.8632175], [-104.6711043, 39.8632166], [-104.6711025, 39.8632452], [-104.6711879, 39.8632479], [-104.6713392, 39.8632476], [-104.6715441, 39.863248], [-104.6715449, 39.8632622], [-104.6716596, 39.8632628], [-104.6716558, 39.8632203], [-104.6717237, 39.8632194], [-104.6721509, 39.8632238], [-104.672398, 39.8632268], [-104.6729541, 39.8632302], [-104.6730254, 39.8632325], [-104.673025, 39.8633177], [-104.6731472, 39.8633182], [-104.673147, 39.8633046], [-104.6732712, 39.8633023], [-104.6735885, 39.8635761], [-104.6737726, 39.8635785], [-104.6741035, 39.8633242], [-104.6742427, 39.8633247], [-104.6742427, 39.8633415], [-104.6743397, 39.863341], [-104.6743377, 39.8632382], [-104.6744925, 39.8632406], [-104.6746475, 39.8632428], [-104.6750647, 39.8632452], [-104.6755203, 39.8632482], [-104.6757158, 39.8632483], [-104.6757203, 39.8632851], [-104.6760064, 39.8632903], [-104.676129, 39.8632886], [-104.6762351, 39.8632918], [-104.6762429, 39.8632538], [-104.6762738, 39.8632536], [-104.6763958, 39.8632539], [-104.6763989, 39.8632256], [-104.6766757, 39.8632282], [-104.6772443, 39.8632316], [-104.6777209, 39.8632322], [-104.6777729, 39.8632298]]]}, "properties": {"height": 6, "night": "#6b351c"}}, {"type": "Feature", "geometry": {"type": "Polygon", "coordinates": [[[-104.6770165, 39.8540025], [-104.6770598, 39.8540027], [-104.6770596, 39.854015], [-104.6771226, 39.8540154], [-104.6771734, 39.8540157], [-104.677173, 39.8540516], [-104.6774528, 39.8540534], [-104.6774533, 39.8540127], [-104.6775473, 39.8540134], [-104.6776118, 39.8540138], [-104.6776115, 39.8540389], [-104.6777297, 39.8540398], [-104.6777293, 39.8540661], [-104.6782584, 39.8540705], [-104.678259, 39.8540332], [-104.6783053, 39.8540336], [-104.6783565, 39.854034], [-104.6783665, 39.8540341], [-104.6783678, 39.8539385], [-104.6784417, 39.8539391], [-104.6784401, 39.8540525], [-104.6786512, 39.8540543], [-104.6786518, 39.8540128], [-104.6787041, 39.8540145], [-104.6792175, 39.8540178], [-104.6792717, 39.8540177], [-104.6793128, 39.8540182], [-104.6793122, 39.8540652], [-104.6795359, 39.8540669], [-104.6795362, 39.8540467], [-104.6796115, 39.8540477], [-104.6796339, 39.8540473], [-104.6796335, 39.8540792], [-104.6799668, 39.8540812], [-104.6801505, 39.8540823], [-104.6801508, 39.8540509], [-104.6802891, 39.8540516], [-104.6802892, 39.8540344], [-104.6803248, 39.8540344], [-104.680381, 39.8540348], [-104.6804155, 39.8540349], [-104.6804152, 39.8540788], [-104.6806792, 39.8540797], [-104.6806794, 39.8540508], [-104.6808089, 39.8540518], [-104.6810426, 39.8540519], [-104.6810443, 39.8536845], [-104.680954, 39.8536843], [-104.6805306, 39.8536831], [-104.680243, 39.8536823], [-104.6798744, 39.8536812], [-104.6794768, 39.85368], [-104.6790221, 39.853679], [-104.678449, 39.8536774], [-104.6776916, 39.8536753], [-104.6772708, 39.8536742], [-104.677054, 39.8536736], [-104.6767328, 39.8536728], [-104.67642, 39.8536719], [-104.6763153, 39.8536716], [-104.6763155, 39.8536267], [-104.676117, 39.8536262], [-104.6758266, 39.8536256], [-104.6758264, 39.8536643], [-104.6757417, 39.8536652], [-104.6754301, 39.8536636], [-104.674965, 39.8536628], [-104.674661, 39.8536623], [-104.674454, 39.8536619], [-104.6744573, 39.8535743], [-104.6743581, 39.8535758], [-104.674358, 39.8535279], [-104.6741635, 39.8533738], [-104.6742003, 39.853347], [-104.6739603, 39.8531506], [-104.6739599, 39.8531328], [-104.6739597, 39.8531195], [-104.673992, 39.8531188], [-104.6739921, 39.8530787], [-104.6737754, 39.8530777], [-104.6737697, 39.8530777], [-104.673763, 39.8530776], [-104.673656, 39.8530772], [-104.6736564, 39.8531165], [-104.6736776, 39.8531166], [-104.6736772, 39.8531307], [-104.6736788, 39.8531488], [-104.6734338, 39.8533198], [-104.673472, 39.8533514], [-104.6732461, 39.8535116], [-104.6732439, 39.8535597], [-104.6731423, 39.8535589], [-104.6731428, 39.8536336], [-104.6730879, 39.8536331], [-104.672939, 39.8536331], [-104.6727193, 39.8536325], [-104.6722819, 39.8536324], [-104.6718373, 39.8536303], [-104.6718009, 39.8536303], [-104.6717673, 39.8535855], [-104.671451, 39.8535873], [-104.6712188, 39.8535867], [-104.6712187, 39.8536282], [-104.671157, 39.853628], [-104.6708355, 39.8536262], [-104.6705881, 39.853626], [-104.6705168, 39.8536268], [-104.6705157, 39.8536875], [-104.6705165, 39.8537292], [-104.6704152, 39.853729], [-104.6704151, 39.8537714], [-104.6700038, 39.8537707], [-104.670003, 39.8537434], [-104.669877, 39.8537432], [-104.6698778, 39.8537695], [-104.6695525, 39.8537689], [-104.6693706, 39.8537686], [-104.66937, 39.8537348], [-104.669343, 39.8537348], [-104.6692879, 39.8537347], [-104.6692882, 39.853626], [-104.6690265, 39.8536261], [-104.668935, 39.8536253], [-104.6688417, 39.8536251], [-104.6688415, 39.8536889], [-104.6688414, 39.8537154], [-104.6688413, 39.8537384], [-104.668741, 39.8537382], [-104.6687407, 39.853818], [-104.6687829, 39.8538181], [-104.6687827, 39.8538462], [-104.6692276, 39.8538475], [-104.6692277, 39.8538233], [-104.6692706, 39.8538234], [-104.6692705, 39.853846], [-104.6693822, 39.8538464], [-104.6693824, 39.8538176], [-104.6698799, 39.8538194], [-104.6698797, 39.8538499], [-104.6700129, 39.8538504], [-104.6700131, 39.8538177], [-104.6704081, 39.8538192], [-104.6704077, 39.8538746], [-104.670488, 39.8538749], [-104.6704874, 39.8539641], [-104.6705964, 39.8539635], [-104.6706533, 39.8539647], [-104.6706532, 39.8540093], [-104.670588, 39.8540436], [-104.669853, 39.8540471], [-104.6697, 39.8542436], [-104.6696709, 39.8542417], [-104.6696712, 39.8541553], [-104.669185, 39.8541545], [-104.6691847, 39.8542375], [-104.6687531, 39.8542369], [-104.6687533, 39.8541534], [-104.6686545, 39.8541533], [-104.6686543, 39.8542336], [-104.6684364, 39.8542333], [-104.6684366, 39.8541497], [-104.6681665, 39.8541494], [-104.6681032, 39.8541493], [-104.668103, 39.8542304], [-104.6679398, 39.8542324], [-104.6679283, 39.8541151], [-104.6677038, 39.8541142], [-104.6677052, 39.8541316], [-104.6677077, 39.8541613], [-104.6676746, 39.8541563], [-104.6676762, 39.8540999], [-104.6672825, 39.8540967], [-104.666978, 39.8540942], [-104.6667732, 39.8540928], [-104.6667723, 39.8543706], [-104.6668067, 39.8543705], [-104.6669337, 39.8543703], [-104.6673056, 39.8543698], [-104.6676536, 39.8543693], [-104.667819, 39.8543694], [-104.6679234, 39.8543695], [-104.6684165, 39.8543698], [-104.6686429, 39.8543699], [-104.6690276, 39.8543701], [-104.6692946, 39.8543703], [-104.669369, 39.8543703], [-104.669427, 39.8543703], [-104.6696671, 39.8543705], [-104.6696672, 39.8542999], [-104.6697458, 39.8543018], [-104.6699031, 39.8541047], [-104.6706097, 39.8541043], [-104.6707339, 39.8539995], [-104.670733, 39.8539643], [-104.6707448, 39.8539645], [-104.6709433, 39.8539653], [-104.6712218, 39.8539654], [-104.6712217, 39.8539933], [-104.671451, 39.8539938], [-104.6717473, 39.8539945], [-104.6717472, 39.8540255], [-104.6717466, 39.854162], [-104.6717964, 39.854164], [-104.671952, 39.8541625], [-104.671952, 39.8541344], [-104.6719526, 39.8540204], [-104.6719528, 39.853966], [-104.6725744, 39.8539675], [-104.6725742, 39.8540208], [-104.672573, 39.8541478], [-104.6726003, 39.8541479], [-104.6727178, 39.8541481], [-104.672718, 39.8541014], [-104.6727183, 39.8540209], [-104.6727186, 39.8539591], [-104.672934, 39.8539596], [-104.6731165, 39.85396], [-104.6731161, 39.8540634], [-104.673341, 39.8540639], [-104.6736788, 39.8543233], [-104.6738508, 39.8543251], [-104.6741758, 39.8540657], [-104.6744757, 39.8540668], [-104.6744751, 39.8541805], [-104.6746356, 39.854181], [-104.6746376, 39.8541441], [-104.6746368, 39.8539883], [-104.674837, 39.853989], [-104.6752434, 39.8539904], [-104.6752431, 39.854034], [-104.675242, 39.8541618], [-104.6752764, 39.8541623], [-104.6754143, 39.8541623], [-104.675433, 39.8541624], [-104.6754343, 39.8540363], [-104.6754345, 39.8539963], [-104.6757948, 39.8539976], [-104.6757947, 39.8540248], [-104.67612, 39.8540261], [-104.6763264, 39.8540269], [-104.6763266, 39.8539994], [-104.6766421, 39.8540027], [-104.676856, 39.8540018], [-104.6769833, 39.8540023], [-104.6770165, 39.8540025]]]}, "properties": {"height": 8, "night": "#8d4c2c"}}, {"type": "Feature", "geometry": {"type": "Polygon", "coordinates": [[[-104.6745062, 39.8520883], [-104.6745065, 39.8520486], [-104.6745071, 39.8518942], [-104.6745079, 39.8517878], [-104.6745089, 39.8517523], [-104.6739018, 39.8517494], [-104.6736652, 39.8517478], [-104.6730646, 39.8517657], [-104.6730592, 39.8520815], [-104.6735632, 39.8520861], [-104.6735638, 39.8520475], [-104.6736934, 39.8520487], [-104.6737148, 39.8520489], [-104.6737746, 39.8520492], [-104.6737836, 39.8520492], [-104.6737887, 39.8520492], [-104.6738666, 39.85205], [-104.6739998, 39.8520506], [-104.6739995, 39.8520859], [-104.6745062, 39.8520883]]]}, "properties": {"height": 8, "night": "#924f2d"}}, {"type": "Feature", "geometry": {"type": "Polygon", "coordinates": [[[-104.6739018, 39.8517494], [-104.673903, 39.8516395], [-104.6736664, 39.8516379], [-104.6736652, 39.8517478], [-104.6739018, 39.8517494]]]}, "properties": {"height": 8, "night": "#924f2d"}}, {"type": "Feature", "geometry": {"type": "Polygon", "coordinates": [[[-104.6988851, 39.8369643], [-104.6977927, 39.8369588], [-104.6977985, 39.8366215], [-104.6988896, 39.8366305], [-104.6988851, 39.8369643]]]}, "properties": {"height": 8, "night": "#582d19"}}, {"type": "Feature", "geometry": {"type": "Polygon", "coordinates": [[[-104.698782, 39.8318176], [-104.6987792, 39.8321539], [-104.6971816, 39.8321457], [-104.6971846, 39.8318092], [-104.6986778, 39.8318164], [-104.698782, 39.8318176]]]}, "properties": {"height": 8, "night": "#4c2614"}}, {"type": "Feature", "geometry": {"type": "Polygon", "coordinates": [[[-104.6696846, 39.8451685], [-104.6696795, 39.845156], [-104.6696595, 39.8451078], [-104.6696413, 39.8450638], [-104.669631, 39.8450389], [-104.6695853, 39.84505], [-104.6695558, 39.8449788], [-104.6694728, 39.8449991], [-104.6694969, 39.8450574], [-104.6694743, 39.8450629], [-104.6694898, 39.8451002], [-104.6695073, 39.8451426], [-104.669527, 39.8451902], [-104.6695334, 39.8452054], [-104.6696846, 39.8451685]]]}, "properties": {"height": 8, "night": "#824627"}}, {"type": "Feature", "geometry": {"type": "Polygon", "coordinates": [[[-104.6720624, 39.8505156], [-104.6710942, 39.8505113], [-104.6710145, 39.8505109], [-104.6702105, 39.8505074], [-104.6702112, 39.8504145], [-104.6702117, 39.8503524], [-104.6702137, 39.8500781], [-104.6702151, 39.8498347], [-104.6702709, 39.8498349], [-104.6711055, 39.8498378], [-104.6718434, 39.8498403], [-104.6718443, 39.8496853], [-104.6711069, 39.8496828], [-104.6702181, 39.8496797], [-104.6702206, 39.8492523], [-104.6702231, 39.8490062], [-104.6718513, 39.8490159], [-104.6718529, 39.8488636], [-104.6711156, 39.8488592], [-104.6702218, 39.8488539], [-104.6702274, 39.8484425], [-104.670228, 39.8481869], [-104.671123, 39.8481926], [-104.6718698, 39.8481973], [-104.6720357, 39.8481982], [-104.6720802, 39.8481952], [-104.6720624, 39.8505156]]]}, "properties": {"height": 15, "night": "#a56942"}}, {"type": "Feature", "geometry": {"type": "Polygon", "coordinates": [[[-104.6758342, 39.8478971], [-104.6758279, 39.8480535], [-104.6758256, 39.8481106], [-104.675821, 39.8482293], [-104.6764833, 39.8482354], [-104.6764876, 39.8482304], [-104.676494, 39.8482269], [-104.6765044, 39.8482262], [-104.6765145, 39.8482292], [-104.676519, 39.8482338], [-104.6765207, 39.8482396], [-104.6765225, 39.8482528], [-104.6765249, 39.8482778], [-104.676536, 39.848278], [-104.676536, 39.8482349], [-104.6765945, 39.8482358], [-104.6774128, 39.8482478], [-104.677417, 39.8482466], [-104.6774216, 39.848241], [-104.6774356, 39.8482363], [-104.6774491, 39.8482393], [-104.677456, 39.8482435], [-104.6774583, 39.8482495], [-104.6774626, 39.848285], [-104.6774742, 39.8482855], [-104.6774652, 39.8486053], [-104.6774638, 39.8486575], [-104.6774632, 39.8487052], [-104.6774614, 39.8488734], [-104.6774487, 39.8488738], [-104.677445, 39.8488889], [-104.6774436, 39.8488993], [-104.6774439, 39.8489027], [-104.6774447, 39.8489105], [-104.6774386, 39.8489173], [-104.6774313, 39.8489206], [-104.6774206, 39.8489209], [-104.6774127, 39.848919], [-104.6774068, 39.848915], [-104.6765869, 39.8489054], [-104.6765217, 39.8489046], [-104.6765229, 39.8488614], [-104.6765135, 39.8488612], [-104.6765092, 39.8488996], [-104.6765024, 39.8489069], [-104.676493, 39.8489102], [-104.6764847, 39.8489118], [-104.6764756, 39.8489099], [-104.6764692, 39.8489068], [-104.6758149, 39.848899], [-104.6758124, 39.8489742], [-104.6758119, 39.8490436], [-104.6758104, 39.8490516], [-104.6764659, 39.8490585], [-104.6764771, 39.8490506], [-104.6764915, 39.8490487], [-104.6765009, 39.8490522], [-104.6765181, 39.8490523], [-104.6765852, 39.8490528], [-104.6773654, 39.8490583], [-104.6773968, 39.8490586], [-104.677404, 39.8490586], [-104.6774069, 39.8490616], [-104.6774097, 39.8490645], [-104.6774109, 39.8490688], [-104.6774065, 39.8491019], [-104.6774185, 39.8491026], [-104.6774185, 39.8494293], [-104.6774189, 39.8494685], [-104.6774175, 39.849528], [-104.6774161, 39.8497301], [-104.6774091, 39.8497301], [-104.6765775, 39.8497251], [-104.6765057, 39.8497246], [-104.6758036, 39.8497204], [-104.675803, 39.8497933], [-104.6758036, 39.8498704], [-104.6765063, 39.8498783], [-104.6765383, 39.8498787], [-104.6765748, 39.8498791], [-104.6765912, 39.8498793], [-104.67737, 39.8498881], [-104.6773896, 39.8498885], [-104.6774027, 39.8498791], [-104.6774069, 39.8498791], [-104.6774138, 39.8498792], [-104.6774245, 39.8498819], [-104.6774312, 39.8498895], [-104.6774319, 39.8498979], [-104.6774337, 39.8499078], [-104.6774364, 39.8499289], [-104.677448, 39.8499292], [-104.6774493, 39.8503049], [-104.6774474, 39.8505199], [-104.6774353, 39.8505198], [-104.6774317, 39.8505482], [-104.6774326, 39.8505552], [-104.6774274, 39.8505637], [-104.6774142, 39.8505672], [-104.6774051, 39.8505672], [-104.6773977, 39.8505648], [-104.6773925, 39.8505614], [-104.6767019, 39.8505474], [-104.676674, 39.8505472], [-104.6766376, 39.850547], [-104.6765632, 39.8505465], [-104.6755676, 39.8505401], [-104.6756081, 39.8482268], [-104.6756778, 39.8482279], [-104.6756832, 39.8480509], [-104.675688, 39.8478943], [-104.6756117, 39.8478962], [-104.6756154, 39.8476801], [-104.6756198, 39.847502], [-104.6756256, 39.8472676], [-104.6756364, 39.8472676], [-104.675635, 39.8472295], [-104.675637, 39.8472255], [-104.6756402, 39.847223], [-104.6756461, 39.8472208], [-104.6756528, 39.8472206], [-104.6756595, 39.8472209], [-104.6756654, 39.847223], [-104.6756695, 39.8472269], [-104.6756717, 39.8472316], [-104.6756706, 39.8472691], [-104.675678, 39.8472694], [-104.6756784, 39.8472256], [-104.6757933, 39.8472263], [-104.6764657, 39.8472332], [-104.6765097, 39.847234], [-104.6765142, 39.8472306], [-104.6765187, 39.8472288], [-104.6765273, 39.8472268], [-104.6765345, 39.8472271], [-104.6765409, 39.8472285], [-104.6765448, 39.8472312], [-104.6765481, 39.8472335], [-104.6765509, 39.8472372], [-104.6765511, 39.8472773], [-104.6765631, 39.8472771], [-104.6765644, 39.847233], [-104.6765926, 39.8472333], [-104.6767084, 39.8472343], [-104.6767811, 39.8472327], [-104.6767816, 39.8472378], [-104.677406, 39.8472443], [-104.6774338, 39.847245], [-104.6774435, 39.84724], [-104.6774523, 39.847238], [-104.6774613, 39.847239], [-104.6774687, 39.8472445], [-104.6774723, 39.8472541], [-104.6774766, 39.8472849], [-104.6774866, 39.8472849], [-104.6774856, 39.8473094], [-104.6774829, 39.8474394], [-104.6774823, 39.8474981], [-104.6774812, 39.8475496], [-104.6774767, 39.8478727], [-104.67747, 39.8478728], [-104.6774608, 39.8478729], [-104.6774538, 39.8478728], [-104.6774379, 39.8478728], [-104.6774332, 39.8478729], [-104.6774257, 39.847873], [-104.6774265, 39.847914], [-104.6771888, 39.8479119], [-104.6765874, 39.8479066], [-104.6765443, 39.8479062], [-104.6765481, 39.8478625], [-104.6765364, 39.8478624], [-104.6765297, 39.8478623], [-104.6765212, 39.8478622], [-104.6765061, 39.8478621], [-104.6765008, 39.847862], [-104.6764916, 39.8478619], [-104.6764936, 39.8479065], [-104.6760113, 39.8479014], [-104.6760108, 39.8479268], [-104.6758867, 39.8479255], [-104.6758871, 39.8478981], [-104.6758342, 39.8478971]]]}, "properties": {"height": 15, "night": "#b47449"}}, {"type": "Feature", "geometry": {"type": "Polygon", "coordinates": [[[-104.6738855, 39.8669], [-104.6738702, 39.8668998], [-104.6737897, 39.8668991], [-104.6734778, 39.866896], [-104.6734872, 39.8663432], [-104.6738949, 39.8663473], [-104.6738855, 39.8669]]]}, "properties": {"height": 8, "night": "#65351d"}}, {"type": "Feature", "geometry": {"type": "Polygon", "coordinates": [[[-104.6682325, 39.8389032], [-104.6682382, 39.838341], [-104.6680784, 39.83834], [-104.6680727, 39.8389022], [-104.6682325, 39.8389032]]]}, "properties": {"height": 8, "night": "#6e3a21"}}, {"type": "Feature", "geometry": {"type": "Polygon", "coordinates": [[[-104.6646921, 39.845047], [-104.6646927, 39.8448441], [-104.66495, 39.8448446], [-104.6649494, 39.8450474], [-104.6646921, 39.845047]]]}, "properties": {"height": 8, "night": "#773f23"}}, {"type": "Feature", "geometry": {"type": "Polygon", "coordinates": [[[-104.6661986, 39.8384763], [-104.6662067, 39.8376497], [-104.6659711, 39.8376484], [-104.6657119, 39.8376469], [-104.6657038, 39.8384734], [-104.6661986, 39.8384763]]]}, "properties": {"height": 6, "night": "#64311a"}}, {"type": "Feature", "geometry": {"type": "Polygon", "coordinates": [[[-104.6664499, 39.8445385], [-104.6664576, 39.8438682], [-104.6650628, 39.8438587], [-104.6650551, 39.844529], [-104.6664499, 39.8445385]]]}, "properties": {"height": 8, "night": "#784024"}}, {"type": "Feature", "geometry": {"type": "Polygon", "coordinates": [[[-104.6810776, 39.8500299], [-104.6810014, 39.849993], [-104.681041, 39.8499448], [-104.6811291, 39.8499875], [-104.6811572, 39.8499532], [-104.6812391, 39.8499931], [-104.6812917, 39.8500184], [-104.6812173, 39.8501089], [-104.6811667, 39.8500846], [-104.6810709, 39.850038], [-104.6810776, 39.8500299]]]}, "properties": {"height": 8, "night": "#97532f"}}, {"type": "Feature", "geometry": {"type": "Polygon", "coordinates": [[[-104.6646861, 39.8452724], [-104.6646867, 39.8450718], [-104.6649411, 39.8450722], [-104.6649406, 39.8452729], [-104.6646861, 39.8452724]]]}, "properties": {"height": 8, "night": "#773f24"}}, {"type": "Feature", "geometry": {"type": "Polygon", "coordinates": [[[-104.6683064, 39.8390815], [-104.6678821, 39.8390799], [-104.6678867, 39.8383557], [-104.667972, 39.838356], [-104.6679678, 39.839014], [-104.6683068, 39.8390153], [-104.6683064, 39.8390815]]]}, "properties": {"height": 8, "night": "#6f3b21"}}, {"type": "Feature", "geometry": {"type": "Polygon", "coordinates": [[[-104.6654557, 39.8448658], [-104.6652245, 39.8448654], [-104.6652248, 39.8447759], [-104.665456, 39.8447763], [-104.6654557, 39.8448658]]]}, "properties": {"height": 8, "night": "#784024"}}, {"type": "Feature", "geometry": {"type": "Polygon", "coordinates": [[[-104.6667085, 39.8419116], [-104.6667088, 39.8417704], [-104.6663459, 39.8417699], [-104.6663456, 39.8419112], [-104.6667085, 39.8419116]]]}, "properties": {"height": 8, "night": "#743e23"}}, {"type": "Feature", "geometry": {"type": "Polygon", "coordinates": [[[-104.6669361, 39.8350304], [-104.6669626, 39.8334223], [-104.6669704, 39.8329461], [-104.6662679, 39.8329393], [-104.6662517, 39.8339258], [-104.666493, 39.8339282], [-104.6664749, 39.8350259], [-104.6669361, 39.8350304]]]}, "properties": {"height": 8, "night": "#5f311b"}}, {"type": "Feature", "geometry": {"type": "Polygon", "coordinates": [[[-104.6705561, 39.8379605], [-104.6705557, 39.8382413], [-104.6706203, 39.8382413], [-104.6706203, 39.8382228], [-104.6707314, 39.8382229], [-104.6707318, 39.8379607], [-104.6705561, 39.8379605]]]}, "properties": {"height": 8, "night": "#703b21"}}, {"type": "Feature", "geometry": {"type": "Polygon", "coordinates": [[[-104.6706683, 39.8388823], [-104.6707987, 39.8387844], [-104.6708502, 39.8388248], [-104.6707199, 39.8389228], [-104.6706683, 39.8388823]]]}, "properties": {"height": 8, "night": "#723d22"}}, {"type": "Feature", "geometry": {"type": "Polygon", "coordinates": [[[-104.6817847, 39.844179], [-104.6818856, 39.8441037], [-104.6817524, 39.8439983], [-104.6816515, 39.8440736], [-104.6817847, 39.844179]]]}, "properties": {"height": 8, "night": "#88492a"}}, {"type": "Feature", "geometry": {"type": "Polygon", "coordinates": [[[-104.6900829, 39.8363056], [-104.6899138, 39.8363043], [-104.6899129, 39.8363761], [-104.689878, 39.8363758], [-104.6898774, 39.8364184], [-104.6895252, 39.8364156], [-104.6895248, 39.8364468], [-104.6893922, 39.8364458], [-104.6893969, 39.8360915], [-104.6895228, 39.8360925], [-104.6895224, 39.8361174], [-104.6897251, 39.836119], [-104.6897303, 39.8357251], [-104.6899537, 39.8357269], [-104.6899508, 39.8359508], [-104.6900876, 39.8359519], [-104.6900829, 39.8363056]]]}, "properties": {"height": 8, "night": "#65351d"}}, {"type": "Feature", "geometry": {"type": "Polygon", "coordinates": [[[-104.6893787, 39.8374737], [-104.6892806, 39.837473], [-104.6892919, 39.8365641], [-104.68939, 39.8365648], [-104.6893787, 39.8374737]]]}, "properties": {"height": 8, "night": "#69371e"}}, {"type": "Feature", "geometry": {"type": "Polygon", "coordinates": [[[-104.6895978, 39.8374775], [-104.6894924, 39.8374766], [-104.6895065, 39.8365658], [-104.6896119, 39.8365668], [-104.6895978, 39.8374775]]]}, "properties": {"height": 8, "night": "#68371e"}}, {"type": "Feature", "geometry": {"type": "Polygon", "coordinates": [[[-104.6898102, 39.8374754], [-104.6897105, 39.837475], [-104.6897165, 39.8365692], [-104.6898162, 39.8365696], [-104.6898102, 39.8374754]]]}, "properties": {"height": 8, "night": "#68371e"}}, {"type": "Feature", "geometry": {"type": "Polygon", "coordinates": [[[-104.6755167, 39.8504207], [-104.6755335, 39.8483428], [-104.675509, 39.8483321], [-104.6754772, 39.8483213], [-104.6754423, 39.8483131], [-104.6754125, 39.8483089], [-104.6753806, 39.8483069], [-104.6753405, 39.8483081], [-104.6753034, 39.8483129], [-104.675267, 39.8483214], [-104.6752414, 39.8483299], [-104.6752122, 39.8483423], [-104.675191, 39.8504115], [-104.6752169, 39.850426], [-104.6752485, 39.8504393], [-104.6752875, 39.8504504], [-104.6753217, 39.8504562], [-104.6753532, 39.8504584], [-104.6753824, 39.8504578], [-104.6754128, 39.8504547], [-104.6754368, 39.8504503], [-104.6754673, 39.8504419], [-104.6754965, 39.8504307], [-104.6755167, 39.8504207]]]}, "properties": {"height": 8, "night": "#97522f"}}, {"type": "Feature", "geometry": {"type": "Polygon", "coordinates": [[[-104.672437, 39.8503941], [-104.6724107, 39.8504082], [-104.6723819, 39.8504199], [-104.6723515, 39.8504289], [-104.6723075, 39.8504366], [-104.6722679, 39.8504387], [-104.6722233, 39.8504357], [-104.6721798, 39.850427], [-104.6721532, 39.8504187], [-104.6721302, 39.8504092], [-104.6720923, 39.8503882], [-104.6721265, 39.848318], [-104.6721619, 39.8483029], [-104.6722035, 39.8482905], [-104.6722518, 39.8482823], [-104.6722867, 39.8482802], [-104.6723243, 39.8482813], [-104.6723562, 39.848285], [-104.6723946, 39.8482931], [-104.6724271, 39.8483034], [-104.672458, 39.8483165], [-104.6724475, 39.8493543], [-104.672437, 39.8503941]]]}, "properties": {"height": 8, "night": "#8f4d2c"}}, {"type": "Feature", "geometry": {"type": "Polygon", "coordinates": [[[-104.6788524, 39.8368844], [-104.6787454, 39.8367971], [-104.6787174, 39.8368173], [-104.6785924, 39.8367145], [-104.6787504, 39.8366004], [-104.6788924, 39.8367166], [-104.6789504, 39.8366746], [-104.6790344, 39.8367434], [-104.6790084, 39.8367623], [-104.6790434, 39.8367904], [-104.6790434, 39.8368002], [-104.6790424, 39.8368764], [-104.6790684, 39.8368766], [-104.6790674, 39.837016], [-104.6789054, 39.8370149], [-104.6789074, 39.8368612], [-104.6788844, 39.836861], [-104.6788524, 39.8368844]]]}, "properties": {"height": 8, "night": "#703b21"}}, {"type": "Feature", "geometry": {"type": "Polygon", "coordinates": [[[-104.6783341, 39.8375713], [-104.6783371, 39.8373509], [-104.6781491, 39.8373489], [-104.6781471, 39.8374427], [-104.6781191, 39.8374424], [-104.6781171, 39.8375333], [-104.6781471, 39.8375336], [-104.6781471, 39.8375694], [-104.6783341, 39.8375713]]]}, "properties": {"height": 8, "night": "#723d22"}}, {"type": "Feature", "geometry": {"type": "Polygon", "coordinates": [[[-104.6752536, 39.8387094], [-104.6752624, 39.8386816], [-104.6752103, 39.8386719], [-104.6752015, 39.8386997], [-104.6752536, 39.8387094]]]}, "properties": {"height": 8, "night": "#763f23"}}, {"type": "Feature", "geometry": {"type": "Polygon", "coordinates": [[[-104.675231, 39.8387841], [-104.6752345, 39.8387565], [-104.675209, 39.8387546], [-104.6752055, 39.8387822], [-104.675231, 39.8387841]]]}, "properties": {"height": 8, "night": "#763f23"}}, {"type": "Feature", "geometry": {"type": "Polygon", "coordinates": [[[-104.6900361, 39.8369487], [-104.6900405, 39.8367531], [-104.6899842, 39.8367523], [-104.6899798, 39.8369479], [-104.6900361, 39.8369487]]]}, "properties": {"height": 8, "night": "#67361e"}}, {"type": "Feature", "geometry": {"type": "Polygon", "coordinates": [[[-104.6913857, 39.8368922], [-104.6914506, 39.8368921], [-104.6914509, 39.8369786], [-104.6913861, 39.8369788], [-104.6913857, 39.8368922]]]}, "properties": {"height": 8, "night": "#65351d"}}, {"type": "Feature", "geometry": {"type": "Polygon", "coordinates": [[[-104.6916216, 39.8373164], [-104.6916209, 39.8370307], [-104.6914388, 39.837031], [-104.6914394, 39.8372682], [-104.6913991, 39.8372683], [-104.6913992, 39.8373101], [-104.6914395, 39.83731], [-104.6914397, 39.8373655], [-104.6916701, 39.8373652], [-104.69167, 39.8373163], [-104.6916216, 39.8373164]]]}, "properties": {"height": 8, "night": "#66351d"}}, {"type": "Feature", "geometry": {"type": "Polygon", "coordinates": [[[-104.6909956, 39.8363323], [-104.6909961, 39.8362005], [-104.6902719, 39.8361989], [-104.6902714, 39.8363307], [-104.6909956, 39.8363323]]]}, "properties": {"height": 8, "night": "#64341d"}}, {"type": "Feature", "geometry": {"type": "Polygon", "coordinates": [[[-104.6911793, 39.8363209], [-104.6911799, 39.836288], [-104.6911168, 39.8362874], [-104.6911163, 39.8363203], [-104.6911793, 39.8363209]]]}, "properties": {"height": 8, "night": "#64341d"}}, {"type": "Feature", "geometry": {"type": "Polygon", "coordinates": [[[-104.6913861, 39.8369788], [-104.6913857, 39.8368922], [-104.6912228, 39.8368931], [-104.6912237, 39.8369794], [-104.6913861, 39.8369788]]]}, "properties": {"height": 8, "night": "#65351d"}}, {"type": "Feature", "geometry": {"type": "Polygon", "coordinates": [[[-104.6955904, 39.8375059], [-104.6956286, 39.8375059], [-104.695698, 39.8375058], [-104.6956981, 39.8374254], [-104.6956294, 39.8374255], [-104.6955903, 39.8374255], [-104.6955904, 39.8375059]]]}, "properties": {"height": 8, "night": "#5f311b"}}, {"type": "Feature", "geometry": {"type": "Polygon", "coordinates": [[[-104.6958055, 39.8375438], [-104.6958054, 39.8375284], [-104.6958056, 39.8373468], [-104.6958055, 39.837329], [-104.6956981, 39.837329], [-104.6956981, 39.8374254], [-104.695698, 39.8375058], [-104.695698, 39.8375438], [-104.6958055, 39.8375438]]]}, "properties": {"height": 8, "night": "#5f311b"}}, {"type": "Feature", "geometry": {"type": "Polygon", "coordinates": [[[-104.6950585, 39.8371618], [-104.6952038, 39.8371603], [-104.6952056, 39.8372567], [-104.6950602, 39.8372582], [-104.6950585, 39.8371618]]]}, "properties": {"height": 8, "night": "#5f311b"}}, {"type": "Feature", "geometry": {"type": "Polygon", "coordinates": [[[-104.6952073, 39.8373687], [-104.6952056, 39.8372567], [-104.6950602, 39.8372582], [-104.6950625, 39.8373702], [-104.6952073, 39.8373687]]]}, "properties": {"height": 8, "night": "#60321b"}}, {"type": "Feature", "geometry": {"type": "Polygon", "coordinates": [[[-104.6959649, 39.8375285], [-104.695965, 39.8373469], [-104.6958692, 39.8373469], [-104.6958056, 39.8373468], [-104.6958054, 39.8375284], [-104.6958711, 39.8375284], [-104.6959649, 39.8375285]]]}, "properties": {"height": 8, "night": "#5e311b"}}, {"type": "Feature", "geometry": {"type": "Polygon", "coordinates": [[[-104.6973616, 39.8372438], [-104.6973636, 39.8369935], [-104.6972582, 39.8369936], [-104.6970292, 39.8369934], [-104.6970291, 39.8372421], [-104.6973616, 39.8372438]]]}, "properties": {"height": 8, "night": "#5b2f1a"}}, {"type": "Feature", "geometry": {"type": "Polygon", "coordinates": [[[-104.6970301, 39.8361756], [-104.6970294, 39.8368052], [-104.6970292, 39.8369934], [-104.6972582, 39.8369936], [-104.6972592, 39.8361757], [-104.6970301, 39.8361756]]]}, "properties": {"height": 8, "night": "#5a2e19"}}, {"type": "Feature", "geometry": {"type": "Polygon", "coordinates": [[[-104.6978016, 39.8376212], [-104.6978021, 39.837554], [-104.6977144, 39.8375536], [-104.697664, 39.8375533], [-104.697577, 39.8375529], [-104.6975078, 39.8375526], [-104.6974443, 39.8375523], [-104.6974031, 39.8375521], [-104.6974026, 39.8376193], [-104.6974457, 39.8376195], [-104.6975082, 39.8376198], [-104.6975745, 39.8376201], [-104.6976657, 39.8376205], [-104.697715, 39.8376208], [-104.6978016, 39.8376212]]]}, "properties": {"height": 8, "night": "#5b2f1a"}}, {"type": "Feature", "geometry": {"type": "Polygon", "coordinates": [[[-104.6708419, 39.8379658], [-104.670843, 39.8379184], [-104.6707599, 39.8379172], [-104.6707588, 39.8379646], [-104.6708419, 39.8379658]]]}, "properties": {"height": 8, "night": "#703b21"}}, {"type": "Feature", "geometry": {"type": "Polygon", "coordinates": [[[-104.6702, 39.8383544], [-104.6702005, 39.8382945], [-104.6701528, 39.8382942], [-104.6701523, 39.8383541], [-104.6702, 39.8383544]]]}, "properties": {"height": 8, "night": "#703b21"}}, {"type": "Feature", "geometry": {"type": "Polygon", "coordinates": [[[-104.6705834, 39.8378434], [-104.6705836, 39.8378076], [-104.6705228, 39.8378073], [-104.6705226, 39.8378431], [-104.6705834, 39.8378434]]]}, "properties": {"height": 8, "night": "#6f3b21"}}, {"type": "Feature", "geometry": {"type": "Polygon", "coordinates": [[[-104.6706235, 39.8384489], [-104.6706244, 39.8384261], [-104.6705807, 39.8384251], [-104.6705798, 39.8384479], [-104.6706235, 39.8384489]]]}, "properties": {"height": 8, "night": "#713c21"}}, {"type": "Feature", "geometry": {"type": "Polygon", "coordinates": [[[-104.6993016, 39.835144], [-104.6992862, 39.8351114], [-104.6992862, 39.8350341], [-104.6993039, 39.8349695], [-104.6985652, 39.8349637], [-104.698562, 39.8351993], [-104.6987262, 39.8352006], [-104.698727, 39.8351394], [-104.6993016, 39.835144]]]}, "properties": {"height": 8, "night": "#532a17"}}, {"type": "Feature", "geometry": {"type": "Polygon", "coordinates": [[[-104.6813649, 39.8312071], [-104.6813659, 39.8310723], [-104.6810319, 39.831071], [-104.6810319, 39.8312059], [-104.6813649, 39.8312071]]]}, "properties": {"height": 8, "night": "#5c301a"}}, {"type": "Feature", "geometry": {"type": "Polygon", "coordinates": [[[-104.681812, 39.8319166], [-104.6818155, 39.8315853], [-104.6818153, 39.8315455], [-104.6806204, 39.8315391], [-104.6806201, 39.8315788], [-104.6806171, 39.8319103], [-104.6810832, 39.8319128], [-104.6811932, 39.8319133], [-104.681812, 39.8319166]]]}, "properties": {"height": 8, "night": "#5e311b"}}, {"type": "Feature", "geometry": {"type": "Polygon", "coordinates": [[[-104.6802898, 39.8315385], [-104.6802899, 39.8314831], [-104.6801134, 39.831483], [-104.6801134, 39.8315384], [-104.6802898, 39.8315385]]]}, "properties": {"height": 8, "night": "#5e301b"}}, {"type": "Feature", "geometry": {"type": "Polygon", "coordinates": [[[-104.6800818, 39.8315415], [-104.6800819, 39.8314865], [-104.6799059, 39.8314864], [-104.6799058, 39.8315414], [-104.6800818, 39.8315415]]]}, "properties": {"height": 8, "night": "#5e311b"}}, {"type": "Feature", "geometry": {"type": "Polygon", "coordinates": [[[-104.6876771, 39.8321415], [-104.6876777, 39.8320616], [-104.6876201, 39.8320613], [-104.687623, 39.8316962], [-104.6876242, 39.8315585], [-104.6867447, 39.8315542], [-104.6865559, 39.8315533], [-104.6865532, 39.8318791], [-104.6865511, 39.8321361], [-104.6867984, 39.8321373], [-104.6868981, 39.8321378], [-104.6876771, 39.8321415]]]}, "properties": {"height": 8, "night": "#5b2f1a"}}, {"type": "Feature", "geometry": {"type": "Polygon", "coordinates": [[[-104.673757, 39.8322109], [-104.6737576, 39.8321274], [-104.6736208, 39.8321269], [-104.6736202, 39.8322103], [-104.673757, 39.8322109]]]}, "properties": {"height": 8, "night": "#5f311b"}}, {"type": "Feature", "geometry": {"type": "Polygon", "coordinates": [[[-104.6795165, 39.8317687], [-104.6795214, 39.831394], [-104.6775224, 39.8313784], [-104.6775209, 39.8314085], [-104.6775175, 39.8317531], [-104.6775427, 39.8317533], [-104.6784305, 39.8317602], [-104.6795165, 39.8317687]]]}, "properties": {"height": 8, "night": "#5e311b"}}, {"type": "Feature", "geometry": {"type": "Polygon", "coordinates": [[[-104.6759357, 39.8317686], [-104.6759404, 39.8313917], [-104.6733132, 39.8313725], [-104.6733098, 39.8316448], [-104.6733085, 39.8317494], [-104.6737689, 39.8317528], [-104.6743107, 39.8317567], [-104.6747472, 39.8317599], [-104.6747472, 39.8317821], [-104.6751094, 39.8317843], [-104.6751092, 39.8317625], [-104.6759357, 39.8317686]]]}, "properties": {"height": 8, "night": "#5e311b"}}, {"type": "Feature", "geometry": {"type": "Polygon", "coordinates": [[[-104.6662841, 39.8322704], [-104.6662894, 39.8318116], [-104.6662908, 39.8316945], [-104.6651458, 39.8316866], [-104.6651391, 39.832263], [-104.6656062, 39.8322662], [-104.6656057, 39.8323105], [-104.6656704, 39.8323109], [-104.6656709, 39.8322679], [-104.665886, 39.8322694], [-104.6658855, 39.8323079], [-104.6660317, 39.8323089], [-104.6660321, 39.8322686], [-104.6662841, 39.8322704]]]}, "properties": {"height": 8, "night": "#582d18"}}, {"type": "Feature", "geometry": {"type": "Polygon", "coordinates": [[[-104.6648103, 39.8361251], [-104.6648135, 39.8360091], [-104.6647134, 39.8360074], [-104.6647102, 39.8361235], [-104.6648103, 39.8361251]]]}, "properties": {"height": 8, "night": "#62331c"}}, {"type": "Feature", "geometry": {"type": "Polygon", "coordinates": [[[-104.6654788, 39.8359546], [-104.6654796, 39.8359075], [-104.6654411, 39.8359071], [-104.6654403, 39.8359542], [-104.6654788, 39.8359546]]]}, "properties": {"height": 8, "night": "#63331c"}}, {"type": "Feature", "geometry": {"type": "Polygon", "coordinates": [[[-104.6659159, 39.8359711], [-104.6659137, 39.8359419], [-104.6658749, 39.8359436], [-104.6658771, 39.8359729], [-104.6659159, 39.8359711]]]}, "properties": {"height": 8, "night": "#63341d"}}, {"type": "Feature", "geometry": {"type": "Polygon", "coordinates": [[[-104.6664963, 39.8402289], [-104.6664967, 39.8401674], [-104.666432, 39.8401672], [-104.6664315, 39.8402286], [-104.6664963, 39.8402289]]]}, "properties": {"height": 8, "night": "#703b21"}}, {"type": "Feature", "geometry": {"type": "Polygon", "coordinates": [[[-104.6665117, 39.8397053], [-104.6665121, 39.8396376], [-104.6665132, 39.8394369], [-104.6663, 39.8394362], [-104.6662986, 39.8397046], [-104.6665117, 39.8397053]]]}, "properties": {"height": 8, "night": "#6e3a20"}}, {"type": "Feature", "geometry": {"type": "Polygon", "coordinates": [[[-104.6668096, 39.8396589], [-104.6666952, 39.8396586], [-104.666695, 39.8397031], [-104.666753, 39.8397032], [-104.6667531, 39.8396846], [-104.6668095, 39.8396847], [-104.6668096, 39.8396589]]]}, "properties": {"height": 8, "night": "#6f3b21"}}, {"type": "Feature", "geometry": {"type": "Polygon", "coordinates": [[[-104.6660492, 39.839974], [-104.6660561, 39.8394317], [-104.6660575, 39.8393338], [-104.665938, 39.8393328], [-104.6656908, 39.839331], [-104.6656826, 39.8399712], [-104.6660492, 39.839974]]]}, "properties": {"height": 8, "night": "#6d3a20"}}, {"type": "Feature", "geometry": {"type": "Polygon", "coordinates": [[[-104.6660355, 39.8388906], [-104.6658423, 39.838889], [-104.665649, 39.8388874], [-104.665651, 39.8387458], [-104.6656944, 39.8387461], [-104.6656959, 39.8386402], [-104.6660396, 39.8386431], [-104.6660391, 39.8386992], [-104.6660359, 39.8388423], [-104.6660355, 39.8388906]]]}, "properties": {"height": 8, "night": "#6b381f"}}, {"type": "Feature", "geometry": {"type": "Polygon", "coordinates": [[[-104.6661625, 39.838844], [-104.6661657, 39.8387009], [-104.6661181, 39.8387003], [-104.6660391, 39.8386992], [-104.6660359, 39.8388423], [-104.6661179, 39.8388434], [-104.6661625, 39.838844]]]}, "properties": {"height": 8, "night": "#6c3920"}}, {"type": "Feature", "geometry": {"type": "Polygon", "coordinates": [[[-104.6651246, 39.8430197], [-104.6651382, 39.8417975], [-104.6655088, 39.8417999], [-104.6655032, 39.842306], [-104.6658759, 39.8423084], [-104.6659388, 39.8423088], [-104.6662487, 39.8423109], [-104.6666114, 39.8423132], [-104.6666072, 39.8426901], [-104.6654973, 39.8426828], [-104.6654935, 39.8430221], [-104.6651246, 39.8430197]]]}, "properties": {"height": 8, "night": "#743e23"}}, {"type": "Feature", "geometry": {"type": "Polygon", "coordinates": [[[-104.6721999, 39.8319718], [-104.6722011, 39.8314794], [-104.6722337, 39.8314786], [-104.6722359, 39.8309912], [-104.6716968, 39.8309896], [-104.6716515, 39.8309894], [-104.6716492, 39.8313909], [-104.6715109, 39.8313903], [-104.6715104, 39.8315597], [-104.6716482, 39.8315598], [-104.6716458, 39.8319717], [-104.6721999, 39.8319718]]]}, "properties": {"height": 8, "night": "#5c2f1a"}}, {"type": "Feature", "geometry": {"type": "Polygon", "coordinates": [[[-104.6691219, 39.831086], [-104.6691221, 39.8310655], [-104.6691299, 39.8303094], [-104.6676923, 39.8303053], [-104.6676856, 39.8312364], [-104.6676732, 39.8312547], [-104.6676618, 39.831276], [-104.6676529, 39.8312997], [-104.6676507, 39.8313168], [-104.6676513, 39.8313403], [-104.6676537, 39.8313547], [-104.6676607, 39.8313786], [-104.6676659, 39.831392], [-104.6676767, 39.8314139], [-104.6676842, 39.8314258], [-104.6681563, 39.8314238], [-104.6681563, 39.8313909], [-104.6681936, 39.8314084], [-104.6682297, 39.8314191], [-104.6682693, 39.8314277], [-104.6683107, 39.8314306], [-104.6683488, 39.8314287], [-104.6683921, 39.8314236], [-104.6684263, 39.8314137], [-104.6684596, 39.831399], [-104.6684897, 39.8313842], [-104.6685278, 39.8313566], [-104.6690843, 39.8313579], [-104.669087, 39.831086], [-104.6691219, 39.831086]]]}, "properties": {"height": 8, "night": "#582d18"}}, {"type": "Feature", "geometry": {"type": "Polygon", "coordinates": [[[-104.6708937, 39.8317503], [-104.6706794, 39.8317482], [-104.6702446, 39.8317454], [-104.6700888, 39.831744], [-104.6700905, 39.8316216], [-104.6700918, 39.8315248], [-104.6700924, 39.8314795], [-104.6700934, 39.8314056], [-104.6702412, 39.8314068], [-104.6702465, 39.8303537], [-104.6706926, 39.8303561], [-104.6706784, 39.8314112], [-104.6708982, 39.8314129], [-104.6708937, 39.8317503]]]}, "properties": {"height": 8, "night": "#5a2e19"}}, {"type": "Feature", "geometry": {"type": "Polygon", "coordinates": [[[-104.6706778, 39.8318936], [-104.6706794, 39.8317482], [-104.6702446, 39.8317454], [-104.670243, 39.8318905], [-104.6703571, 39.8318913], [-104.6703566, 39.8319391], [-104.6703764, 39.8319492], [-104.6704026, 39.8319582], [-104.6704322, 39.831963], [-104.6704599, 39.8319651], [-104.6704895, 39.8319631], [-104.6705156, 39.8319592], [-104.6705403, 39.8319508], [-104.6705632, 39.8319404], [-104.6705638, 39.8318929], [-104.6706778, 39.8318936]]]}, "properties": {"height": 8, "night": "#5c2f1a"}}, {"type": "Feature", "geometry": {"type": "Polygon", "coordinates": [[[-104.6662581, 39.8435717], [-104.666259, 39.8434606], [-104.6661054, 39.8434598], [-104.6661045, 39.8435709], [-104.6662581, 39.8435717]]]}, "properties": {"height": 8, "night": "#773f24"}}, {"type": "Feature", "geometry": {"type": "Polygon", "coordinates": [[[-104.6665562, 39.8435184], [-104.6665564, 39.8434856], [-104.6664685, 39.8434853], [-104.6664684, 39.8435181], [-104.6665562, 39.8435184]]]}, "properties": {"height": 8, "night": "#784024"}}, {"type": "Feature", "geometry": {"type": "Polygon", "coordinates": [[[-104.6824266, 39.8751372], [-104.6819427, 39.8751376], [-104.6819427, 39.8751663], [-104.6818847, 39.8751664], [-104.6818846, 39.8751363], [-104.681779, 39.8751364], [-104.6817789, 39.8750853], [-104.6817787, 39.874942], [-104.6824262, 39.8749414], [-104.6824265, 39.8751162], [-104.6824266, 39.8751372]]]}, "properties": {"height": 8, "night": "#492413"}}, {"type": "Feature", "geometry": {"type": "Polygon", "coordinates": [[[-104.6751228, 39.8727339], [-104.675081, 39.8726785], [-104.6749952, 39.8726785], [-104.6749651, 39.8727347], [-104.6749468, 39.8727446], [-104.6749313, 39.8727564], [-104.6749158, 39.8727729], [-104.674906, 39.8727878], [-104.6748986, 39.8728053], [-104.6748946, 39.8728292], [-104.6748962, 39.8728487], [-104.6749027, 39.8728691], [-104.674912, 39.8728855], [-104.6749266, 39.8729028], [-104.6749416, 39.8729154], [-104.6749658, 39.8729296], [-104.674981, 39.872936], [-104.6750151, 39.8729445], [-104.6750423, 39.8729467], [-104.675075, 39.8729443], [-104.6751045, 39.8729371], [-104.6751281, 39.8729271], [-104.6751537, 39.8729103], [-104.6751672, 39.8728976], [-104.6751794, 39.8728816], [-104.6751883, 39.8728635], [-104.6751936, 39.8728417], [-104.6751933, 39.8728198], [-104.6751876, 39.8727983], [-104.6751806, 39.8727839], [-104.6751676, 39.8727665], [-104.6751562, 39.8727553], [-104.6751403, 39.8727435], [-104.6751228, 39.8727339]]]}, "properties": {"height": 8, "night": "#512916"}}, {"type": "Feature", "geometry": {"type": "Polygon", "coordinates": [[[-104.680943, 39.8669436], [-104.6809415, 39.8668843], [-104.6808749, 39.8668852], [-104.6808763, 39.8669446], [-104.680943, 39.8669436]]]}, "properties": {"height": 8, "night": "#65351d"}}, {"type": "Feature", "geometry": {"type": "Polygon", "coordinates": [[[-104.6790921, 39.8751496], [-104.6790933, 39.8750595], [-104.6790944, 39.8749245], [-104.6784532, 39.8749207], [-104.6784525, 39.8749881], [-104.6784518, 39.8750565], [-104.6784513, 39.8751094], [-104.6790315, 39.8751128], [-104.6790311, 39.8751492], [-104.6790921, 39.8751496]]]}, "properties": {"height": 8, "night": "#4a2513"}}, {"type": "Feature", "geometry": {"type": "Polygon", "coordinates": [[[-104.6801793, 39.8751556], [-104.6801817, 39.8750708], [-104.6801816, 39.8749299], [-104.6795397, 39.8749261], [-104.679539, 39.8749938], [-104.6795383, 39.8750627], [-104.6795377, 39.8751154], [-104.6801179, 39.8751188], [-104.6801176, 39.8751552], [-104.6801793, 39.8751556]]]}, "properties": {"height": 8, "night": "#492513"}}, {"type": "Feature", "geometry": {"type": "Polygon", "coordinates": [[[-104.6812675, 39.8751614], [-104.6812683, 39.8750812], [-104.6812698, 39.8749355], [-104.6806276, 39.8749317], [-104.6806269, 39.8749995], [-104.6806261, 39.875073], [-104.6806256, 39.8751212], [-104.6812058, 39.8751247], [-104.6812054, 39.8751611], [-104.6812675, 39.8751614]]]}, "properties": {"height": 8, "night": "#492413"}}, {"type": "Feature", "geometry": {"type": "Polygon", "coordinates": [[[-104.6751647, 39.8723115], [-104.6751577, 39.8722963], [-104.6751469, 39.8722825], [-104.6751326, 39.8722706], [-104.6751154, 39.8722612], [-104.6750962, 39.8722546], [-104.6750756, 39.8722512], [-104.6750546, 39.872251], [-104.6750339, 39.8722541], [-104.6750145, 39.8722604], [-104.6749972, 39.8722695], [-104.6749825, 39.8722811], [-104.6749713, 39.8722948], [-104.6749639, 39.8723099], [-104.6749606, 39.8723258], [-104.6749616, 39.872342], [-104.6749668, 39.8723576], [-104.6749752, 39.8723712], [-104.6749868, 39.8723833], [-104.6750012, 39.8723935], [-104.6750178, 39.8724014], [-104.6750361, 39.8724068], [-104.6750554, 39.8724095], [-104.6750749, 39.8724093], [-104.6750941, 39.8724063], [-104.6751122, 39.8724006], [-104.6751286, 39.8723924], [-104.6751427, 39.872382], [-104.675154, 39.8723697], [-104.675162, 39.872356], [-104.6751666, 39.8723414], [-104.6751675, 39.8723264], [-104.6751647, 39.8723115]]]}, "properties": {"height": 8, "night": "#532a17"}}, {"type": "Feature", "geometry": {"type": "Polygon", "coordinates": [[[-104.6779993, 39.8751399], [-104.6780002, 39.8750544], [-104.6780016, 39.8749146], [-104.6773602, 39.8749108], [-104.6773595, 39.8749783], [-104.6773583, 39.8750997], [-104.6779385, 39.8751032], [-104.6779381, 39.8751396], [-104.6779993, 39.8751399]]]}, "properties": {"height": 8, "night": "#4a2513"}}, {"type": "Feature", "geometry": {"type": "Polygon", "coordinates": [[[-104.6752979, 39.8725254], [-104.6752982, 39.8724948], [-104.6752444, 39.8724945], [-104.6752441, 39.872525], [-104.6752979, 39.8725254]]]}, "properties": {"height": 8, "night": "#522a16"}}, {"type": "Feature", "geometry": {"type": "Polygon", "coordinates": [[[-104.6818394, 39.8764568], [-104.6818421, 39.876286], [-104.6817962, 39.8762856], [-104.6817976, 39.8761985], [-104.6818443, 39.876199], [-104.68185, 39.8758412], [-104.6823962, 39.8758463], [-104.6823887, 39.8763133], [-104.6825326, 39.8763146], [-104.6825309, 39.8764229], [-104.6823861, 39.8764216], [-104.6823855, 39.876462], [-104.6823418, 39.876462], [-104.6819812, 39.8764582], [-104.6818394, 39.8764568]]]}, "properties": {"height": 8, "night": "#452212"}}, {"type": "Feature", "geometry": {"type": "Polygon", "coordinates": [[[-104.6661589, 39.8733312], [-104.6661592, 39.8732591], [-104.6659404, 39.8732586], [-104.66594, 39.8733306], [-104.6661589, 39.8733312]]]}, "properties": {"height": 8, "night": "#492413"}}, {"type": "Feature", "geometry": {"type": "Polygon", "coordinates": [[[-104.6811941, 39.8759882], [-104.6811953, 39.8758922], [-104.6811954, 39.8758798], [-104.6811236, 39.8758793], [-104.6811252, 39.8757464], [-104.6809797, 39.8757453], [-104.6809771, 39.8759643], [-104.6809768, 39.8759867], [-104.6811941, 39.8759882]]]}, "properties": {"height": 8, "night": "#462312"}}, {"type": "Feature", "geometry": {"type": "Polygon", "coordinates": [[[-104.6805323, 39.8754804], [-104.6805326, 39.8754137], [-104.6801496, 39.8754128], [-104.6801493, 39.8754795], [-104.6805323, 39.8754804]]]}, "properties": {"height": 8, "night": "#482413"}}, {"type": "Feature", "geometry": {"type": "Polygon", "coordinates": [[[-104.6699217, 39.8726053], [-104.6699255, 39.8722424], [-104.6699307, 39.8717522], [-104.6681878, 39.8717393], [-104.6681774, 39.8725922], [-104.6683374, 39.8725938], [-104.6683352, 39.8727169], [-104.6684437, 39.872718], [-104.6684469, 39.8725974], [-104.6688437, 39.8725997], [-104.6699217, 39.8726053]]]}, "properties": {"height": 8, "night": "#4f2815"}}, {"type": "Feature", "geometry": {"type": "Polygon", "coordinates": [[[-104.6681667, 39.8752374], [-104.6681671, 39.8752832], [-104.6680302, 39.8752839], [-104.6680298, 39.8752381], [-104.6681667, 39.8752374]]]}, "properties": {"height": 8, "night": "#452212"}}, {"type": "Feature", "geometry": {"type": "Polygon", "coordinates": [[[-104.6684165, 39.8740996], [-104.6684437, 39.872718], [-104.6684469, 39.8725974], [-104.6688437, 39.8725997], [-104.6688348, 39.8729728], [-104.6687847, 39.8729733], [-104.6687947, 39.87304], [-104.6687974, 39.8730883], [-104.668797, 39.8732055], [-104.6687923, 39.8733087], [-104.6687862, 39.8734345], [-104.6688173, 39.8734368], [-104.6688396, 39.8734404], [-104.6688601, 39.8734473], [-104.6688828, 39.8734581], [-104.6689035, 39.8734735], [-104.6689199, 39.8734896], [-104.6689298, 39.8735076], [-104.6689357, 39.8735306], [-104.6689375, 39.8735515], [-104.6690102, 39.8735517], [-104.6690069, 39.8738542], [-104.6690068, 39.873918], [-104.6690046, 39.8741041], [-104.6684165, 39.8740996]]]}, "properties": {"height": 8, "night": "#4b2614"}}, {"type": "Feature", "geometry": {"type": "Polygon", "coordinates": [[[-104.6678652, 39.8752525], [-104.667865, 39.8751778], [-104.6677492, 39.8751781], [-104.6677495, 39.8752527], [-104.6678652, 39.8752525]]]}, "properties": {"height": 8, "night": "#452212"}}, {"type": "Feature", "geometry": {"type": "Polygon", "coordinates": [[[-104.6695787, 39.8741084], [-104.6695768, 39.8742558], [-104.6695711, 39.874701], [-104.6690456, 39.874697], [-104.6690409, 39.8750659], [-104.6685027, 39.8750618], [-104.6685061, 39.8748041], [-104.6684643, 39.8748057], [-104.6684075, 39.8748033], [-104.6684165, 39.8740996], [-104.6690046, 39.8741041], [-104.6695787, 39.8741084]]]}, "properties": {"height": 8, "night": "#482413"}}, {"type": "Feature", "geometry": {"type": "Polygon", "coordinates": [[[-104.6690637, 39.8739181], [-104.6690639, 39.8738543], [-104.6690069, 39.8738542], [-104.6690068, 39.873918], [-104.6690637, 39.8739181]]]}, "properties": {"height": 8, "night": "#4a2513"}}, {"type": "Feature", "geometry": {"type": "Polygon", "coordinates": [[[-104.667731, 39.8725875], [-104.6677044, 39.8740943], [-104.6684165, 39.8740996], [-104.6684437, 39.872718], [-104.6683352, 39.8727169], [-104.6683374, 39.8725938], [-104.6681774, 39.8725922], [-104.667731, 39.8725875]]]}, "properties": {"height": 8, "night": "#4c2614"}}, {"type": "Feature", "geometry": {"type": "Polygon", "coordinates": [[[-104.6696765, 39.8750759], [-104.6697108, 39.8750706], [-104.6697457, 39.8750545], [-104.6697664, 39.8750357], [-104.6697811, 39.8750067], [-104.6697828, 39.8749853], [-104.6697765, 39.8749621], [-104.6697614, 39.8749405], [-104.6697368, 39.8749219], [-104.6697052, 39.8749097], [-104.6696771, 39.8749059], [-104.6696413, 39.8749092], [-104.6696117, 39.8749197], [-104.6695846, 39.8749388], [-104.6695696, 39.8749587], [-104.6695615, 39.8749879], [-104.6695651, 39.8750126], [-104.6695827, 39.875041], [-104.6696035, 39.8750576], [-104.6696366, 39.8750714], [-104.6696765, 39.8750759]]]}, "properties": {"height": 8, "night": "#472312"}}, {"type": "Feature", "geometry": {"type": "Polygon", "coordinates": [[[-104.6693651, 39.8750858], [-104.669406, 39.8750796], [-104.6694466, 39.8750609], [-104.6694714, 39.8750382], [-104.6694884, 39.8750048], [-104.6694904, 39.8749791], [-104.669483, 39.8749519], [-104.6694652, 39.8749263], [-104.6694363, 39.8749044], [-104.6693994, 39.8748902], [-104.6693656, 39.8748857], [-104.669324, 39.8748896], [-104.6692889, 39.874902], [-104.6692574, 39.8749242], [-104.6692393, 39.8749482], [-104.6692299, 39.874982], [-104.6692342, 39.8750116], [-104.6692545, 39.8750444], [-104.6692796, 39.8750645], [-104.6693184, 39.8750806], [-104.6693651, 39.8750858]]]}, "properties": {"height": 8, "night": "#472312"}}, {"type": "Feature", "geometry": {"type": "Polygon", "coordinates": [[[-104.6559969, 39.8533354], [-104.655997, 39.8532708], [-104.6558727, 39.8532707], [-104.6558726, 39.8533354], [-104.6559969, 39.8533354]]]}, "properties": {"height": 8, "night": "#63331c"}}, {"type": "Feature", "geometry": {"type": "Polygon", "coordinates": [[[-104.6589239, 39.8714865], [-104.6589226, 39.8714322], [-104.6588572, 39.8714332], [-104.6588586, 39.8714874], [-104.6589239, 39.8714865]]]}, "properties": {"height": 8, "night": "#462212"}}, {"type": "Feature", "geometry": {"type": "Polygon", "coordinates": [[[-104.6551271, 39.8702337], [-104.6551263, 39.8701402], [-104.6550378, 39.8701406], [-104.6550386, 39.8702341], [-104.6551271, 39.8702337]]]}, "properties": {"height": 8, "night": "#432111"}}, {"type": "Feature", "geometry": {"type": "Polygon", "coordinates": [[[-104.6560153, 39.8482302], [-104.6560153, 39.8481726], [-104.6559564, 39.8481726], [-104.6559564, 39.8482302], [-104.6560153, 39.8482302]]]}, "properties": {"height": 8, "night": "#63341d"}}, {"type": "Feature", "geometry": {"type": "Polygon", "coordinates": [[[-104.6579393, 39.8550141], [-104.6579426, 39.8546386], [-104.6578196, 39.854638], [-104.6578162, 39.8550135], [-104.6579393, 39.8550141]]]}, "properties": {"height": 8, "night": "#67361e"}}, {"type": "Feature", "geometry": {"type": "Polygon", "coordinates": [[[-104.655242, 39.8678352], [-104.6552419, 39.867791], [-104.6551531, 39.8677911], [-104.6551532, 39.8678352], [-104.655242, 39.8678352]]]}, "properties": {"height": 8, "night": "#492413"}}, {"type": "Feature", "geometry": {"type": "Polygon", "coordinates": [[[-104.6577482, 39.8533497], [-104.6577484, 39.8532883], [-104.6576306, 39.853288], [-104.6576304, 39.8533494], [-104.6577482, 39.8533497]]]}, "properties": {"height": 8, "night": "#67361e"}}, {"type": "Feature", "geometry": {"type": "Polygon", "coordinates": [[[-104.6749841, 39.8476911], [-104.6749853, 39.8476536], [-104.6749888, 39.8475394], [-104.6749904, 39.8474734], [-104.6748775, 39.8474727], [-104.6728586, 39.8474925], [-104.6727596, 39.8474918], [-104.6727573, 39.8476774], [-104.6728569, 39.8476781], [-104.6748737, 39.8476925], [-104.6749841, 39.8476911]]]}, "properties": {"height": 42, "night": "#e4b57f"}}, {"type": "Feature", "geometry": {"type": "Polygon", "coordinates": [[[-104.6736778, 39.8469761], [-104.6737079, 39.8469567], [-104.6737357, 39.8469401], [-104.6737678, 39.8469278], [-104.6738056, 39.8469178], [-104.6738446, 39.8469126], [-104.6738869, 39.8469138], [-104.6739296, 39.8469209], [-104.6739665, 39.8469363], [-104.674005, 39.8469587], [-104.6740268, 39.8469749], [-104.6740493, 39.8469984], [-104.6740716, 39.8470231], [-104.6740889, 39.84705], [-104.6741009, 39.8470786], [-104.6741155, 39.8471082], [-104.6741298, 39.8471398], [-104.6741443, 39.8471788], [-104.6741535, 39.8472157], [-104.6741345, 39.8472668], [-104.6741128, 39.8473137], [-104.6740917, 39.8473499], [-104.6740772, 39.8473706], [-104.6740666, 39.8473843], [-104.6740564, 39.8473916], [-104.674031, 39.8474189], [-104.674019, 39.8474026], [-104.6740036, 39.8473793], [-104.6739848, 39.8473572], [-104.6739594, 39.8473361], [-104.6739282, 39.8473161], [-104.6738901, 39.8473056], [-104.6738662, 39.8473032], [-104.6738361, 39.8473049], [-104.673807, 39.8473113], [-104.673773, 39.8473244], [-104.6737488, 39.84734], [-104.6737239, 39.8473573], [-104.6737033, 39.8473768], [-104.6736828, 39.8473975], [-104.673662, 39.8474218], [-104.6736513, 39.8474378], [-104.6736388, 39.8474276], [-104.6736242, 39.8474139], [-104.673606, 39.8473903], [-104.6735942, 39.8473766], [-104.673578, 39.847354], [-104.6735656, 39.8473347], [-104.673549, 39.8473095], [-104.6735242, 39.8472595], [-104.6735082, 39.8472111], [-104.6735263, 39.8471693], [-104.6735471, 39.8471276], [-104.673562, 39.847104], [-104.6735735, 39.8470865], [-104.6735882, 39.8470663], [-104.6736035, 39.8470463], [-104.6736205, 39.8470279], [-104.6736397, 39.8470081], [-104.6736569, 39.8469925], [-104.6736778, 39.8469761]]]}, "properties": {"height": 8, "night": "#8f4d2c"}}, {"type": "Feature", "geometry": {"type": "Polygon", "coordinates": [[[-104.6993767, 39.8371234], [-104.6993528, 39.8371233], [-104.6992447, 39.8371227], [-104.6991426, 39.8371222], [-104.6990345, 39.8371216], [-104.6989285, 39.8371211], [-104.6988204, 39.8371205], [-104.698709, 39.8371199], [-104.6986009, 39.8371193], [-104.6984922, 39.8371188], [-104.6983841, 39.8371182], [-104.6982782, 39.8371177], [-104.69817, 39.8371171], [-104.6980722, 39.8371166], [-104.6979641, 39.837116], [-104.6979504, 39.8371159], [-104.6979508, 39.8370699], [-104.6993771, 39.8370773], [-104.6993767, 39.8371234]]]}, "properties": {"height": 8, "night": "#582d19"}}, {"type": "Feature", "geometry": {"type": "Polygon", "coordinates": [[[-104.6986009, 39.8371193], [-104.6985988, 39.8372422], [-104.6984912, 39.8372412], [-104.6984922, 39.8371188], [-104.6986009, 39.8371193]]]}, "properties": {"height": 8, "night": "#592d19"}}, {"type": "Feature", "geometry": {"type": "Polygon", "coordinates": [[[-104.6982706, 39.8376037], [-104.6981624, 39.8376027], [-104.69817, 39.8371171], [-104.6982782, 39.8371177], [-104.6982706, 39.8376037]]]}, "properties": {"height": 8, "night": "#5a2e19"}}, {"type": "Feature", "geometry": {"type": "Polygon", "coordinates": [[[-104.6980646, 39.8376025], [-104.6979565, 39.8376015], [-104.6979641, 39.837116], [-104.6980722, 39.8371166], [-104.6980646, 39.8376025]]]}, "properties": {"height": 8, "night": "#5a2e19"}}, {"type": "Feature", "geometry": {"type": "Polygon", "coordinates": [[[-104.6984847, 39.8376049], [-104.6983765, 39.8376039], [-104.6983841, 39.8371182], [-104.6984922, 39.8371188], [-104.6984912, 39.8372412], [-104.6984847, 39.8376049]]]}, "properties": {"height": 8, "night": "#592e19"}}, {"type": "Feature", "geometry": {"type": "Polygon", "coordinates": [[[-104.6987014, 39.8376061], [-104.6985933, 39.8376051], [-104.6985988, 39.8372422], [-104.6986009, 39.8371193], [-104.698709, 39.8371199], [-104.6987014, 39.8376061]]]}, "properties": {"height": 8, "night": "#592e19"}}, {"type": "Feature", "geometry": {"type": "Polygon", "coordinates": [[[-104.6728926, 39.8520472], [-104.6728959, 39.8519359], [-104.6728101, 39.8519359], [-104.6728069, 39.8518654], [-104.6727766, 39.8518661], [-104.6727749, 39.8518439], [-104.6716706, 39.8518387], [-104.6716718, 39.8519407], [-104.6716428, 39.8519405], [-104.6716411, 39.8520463], [-104.6728926, 39.8520472]]]}, "properties": {"height": 8, "night": "#8e4d2c"}}, {"type": "Feature", "geometry": {"type": "Polygon", "coordinates": [[[-104.6860161, 39.8514904], [-104.6858932, 39.8514901], [-104.6858949, 39.8511176], [-104.6860178, 39.8511179], [-104.6860161, 39.8514904]]]}, "properties": {"height": 3, "night": "#78351a"}}, {"type": "Feature", "geometry": {"type": "Polygon", "coordinates": [[[-104.6714398, 39.852014], [-104.6714393, 39.8520445], [-104.6716411, 39.8520463], [-104.6716428, 39.8519405], [-104.6714409, 39.8519386], [-104.6714398, 39.852014]]]}, "properties": {"height": 8, "night": "#8c4c2b"}}, {"type": "Feature", "geometry": {"type": "Polygon", "coordinates": [[[-104.6980011, 39.854926], [-104.6979972, 39.8549825], [-104.6980509, 39.8549847], [-104.6980548, 39.8549281], [-104.6980011, 39.854926]]]}, "properties": {"height": 8, "night": "#68371e"}}, {"type": "Feature", "geometry": {"type": "Polygon", "coordinates": [[[-104.6981306, 39.8490891], [-104.698128, 39.8490461], [-104.6980526, 39.8490487], [-104.6980552, 39.8490918], [-104.6981306, 39.8490891]]]}, "properties": {"height": 8, "night": "#6a381f"}}, {"type": "Feature", "geometry": {"type": "Polygon", "coordinates": [[[-104.6866828, 39.8566331], [-104.6866783, 39.8566584], [-104.6866908, 39.8566906], [-104.686712, 39.8567095], [-104.6867341, 39.8567197], [-104.6867647, 39.8567252], [-104.6867827, 39.8567246], [-104.686812, 39.8567175], [-104.6868373, 39.8567028], [-104.6868578, 39.8566751], [-104.6868616, 39.8566517], [-104.6868533, 39.8566256], [-104.6868357, 39.8566059], [-104.6868179, 39.8565949], [-104.6867883, 39.856586], [-104.6867629, 39.8565848], [-104.6867313, 39.8565911], [-104.68671, 39.8566017], [-104.68669, 39.8566206], [-104.6866828, 39.8566331]]]}, "properties": {"height": 8, "night": "#804527"}}, {"type": "Feature", "geometry": {"type": "Polygon", "coordinates": [[[-104.6868586, 39.855668], [-104.6868604, 39.8557299], [-104.6869866, 39.8557313], [-104.6869846, 39.8557668], [-104.6871369, 39.85577], [-104.6871402, 39.8556721], [-104.6868586, 39.855668]]]}, "properties": {"height": 8, "night": "#824627"}}, {"type": "Feature", "geometry": {"type": "Polygon", "coordinates": [[[-104.686899, 39.8564493], [-104.6868949, 39.8564726], [-104.6869065, 39.8565025], [-104.6869259, 39.8565198], [-104.6869461, 39.8565292], [-104.6869746, 39.8565343], [-104.6869906, 39.8565338], [-104.6870179, 39.8565271], [-104.687041, 39.8565137], [-104.6870601, 39.8564879], [-104.6870635, 39.8564666], [-104.6870558, 39.8564425], [-104.6870396, 39.8564243], [-104.6870235, 39.8564144], [-104.6869959, 39.8564061], [-104.6869728, 39.856405], [-104.6869435, 39.8564109], [-104.6869241, 39.8564205], [-104.6869054, 39.8564381], [-104.686899, 39.8564493]]]}, "properties": {"height": 8, "night": "#804527"}}, {"type": "Feature", "geometry": {"type": "Polygon", "coordinates": [[[-104.6869159, 39.8562745], [-104.6869007, 39.8562823], [-104.6868874, 39.8562979], [-104.6868843, 39.8563117], [-104.6868876, 39.8563254], [-104.6868974, 39.8563381], [-104.6869117, 39.8563468], [-104.6869305, 39.8563515], [-104.6869487, 39.8563507], [-104.6869714, 39.8563417], [-104.6869828, 39.8563308], [-104.6869892, 39.8563125], [-104.6869865, 39.8562986], [-104.6869796, 39.8562882], [-104.6869666, 39.8562784], [-104.6869501, 39.8562725], [-104.6869319, 39.8562714], [-104.6869159, 39.8562745]]]}, "properties": {"height": 8, "night": "#804527"}}, {"type": "Feature", "geometry": {"type": "Polygon", "coordinates": [[[-104.6867151, 39.8557674], [-104.6867122, 39.85601], [-104.6867126, 39.8560277], [-104.6869219, 39.8560289], [-104.6869243, 39.8557685], [-104.6868628, 39.8557682], [-104.6867151, 39.8557674]]]}, "properties": {"height": 8, "night": "#824627"}}, {"type": "Feature", "geometry": {"type": "Polygon", "coordinates": [[[-104.6869449, 39.8566361], [-104.6869406, 39.8566605], [-104.6869527, 39.8566918], [-104.6869732, 39.8567101], [-104.6869946, 39.85672], [-104.6870243, 39.8567253], [-104.6870415, 39.8567248], [-104.68707, 39.8567178], [-104.6870944, 39.8567036], [-104.6871144, 39.8566767], [-104.687118, 39.8566541], [-104.6871099, 39.8566288], [-104.6870929, 39.8566097], [-104.6870758, 39.8565992], [-104.687047, 39.8565905], [-104.6870225, 39.8565893], [-104.6869918, 39.8565955], [-104.6869713, 39.8566057], [-104.6869518, 39.856624], [-104.6869449, 39.8566361]]]}, "properties": {"height": 8, "night": "#7f4427"}}, {"type": "Feature", "geometry": {"type": "Polygon", "coordinates": [[[-104.6871982, 39.8559082], [-104.6871945, 39.8560173], [-104.6873295, 39.85602], [-104.6873332, 39.8559108], [-104.6871982, 39.8559082]]]}, "properties": {"height": 8, "night": "#804527"}}, {"type": "Feature", "geometry": {"type": "Polygon", "coordinates": [[[-104.6864727, 39.8560988], [-104.6864689, 39.8562697], [-104.6865811, 39.8562712], [-104.686585, 39.8561003], [-104.6864727, 39.8560988]]]}, "properties": {"height": 8, "night": "#814627"}}, {"type": "Feature", "geometry": {"type": "Polygon", "coordinates": [[[-104.6868666, 39.8564672], [-104.6868457, 39.856438], [-104.6868045, 39.8564172], [-104.6867661, 39.8564136], [-104.6867263, 39.856423], [-104.6866991, 39.8564407], [-104.686686, 39.8564571], [-104.6866777, 39.8564821], [-104.6866859, 39.8565175], [-104.6867064, 39.8565402], [-104.6867305, 39.8565534], [-104.6867667, 39.8565612], [-104.6868017, 39.8565582], [-104.6868331, 39.8565457], [-104.6868566, 39.8565254], [-104.6868676, 39.8565046], [-104.6868666, 39.8564672]]]}, "properties": {"height": 8, "night": "#804527"}}, {"type": "Feature", "geometry": {"type": "Polygon", "coordinates": [[[-104.6866964, 39.8562946], [-104.6866922, 39.8563184], [-104.686704, 39.8563489], [-104.6867239, 39.8563667], [-104.6867446, 39.8563763], [-104.6867737, 39.8563815], [-104.6867903, 39.856381], [-104.6868181, 39.8563742], [-104.6868418, 39.8563604], [-104.6868613, 39.8563341], [-104.6868647, 39.8563122], [-104.6868569, 39.8562876], [-104.6868403, 39.856269], [-104.6868237, 39.8562588], [-104.6867957, 39.8562503], [-104.6867719, 39.8562491], [-104.686742, 39.8562552], [-104.686722, 39.8562651], [-104.686703, 39.856283], [-104.6866964, 39.8562946]]]}, "properties": {"height": 8, "night": "#814527"}}, {"type": "Feature", "geometry": {"type": "Polygon", "coordinates": [[[-104.6903352, 39.8759846], [-104.6898925, 39.875983], [-104.6898927, 39.8759103], [-104.689925, 39.8759103], [-104.6899244, 39.8757618], [-104.6901624, 39.8757611], [-104.6901825, 39.8757858], [-104.6901789, 39.8758655], [-104.6903408, 39.8758667], [-104.6903352, 39.8759846]]]}, "properties": {"height": 8, "night": "#412010"}}, {"type": "Feature", "geometry": {"type": "Polygon", "coordinates": [[[-104.6904732, 39.8737868], [-104.6895947, 39.8737841], [-104.6895953, 39.8736689], [-104.6904737, 39.8736715], [-104.6904732, 39.8737868]]]}, "properties": {"height": 8, "night": "#482413"}}, {"type": "Feature", "geometry": {"type": "Polygon", "coordinates": [[[-104.6745131, 39.8514458], [-104.6745909, 39.851384], [-104.6746579, 39.8513078], [-104.6747089, 39.8512317], [-104.6748323, 39.8512687], [-104.6747652, 39.8513717], [-104.6746767, 39.8514602], [-104.6746097, 39.8515199], [-104.6745131, 39.8514458]]]}, "properties": {"height": 8, "night": "#95512e"}}, {"type": "Feature", "geometry": {"type": "Polygon", "coordinates": [[[-104.6823553, 39.8506177], [-104.6821419, 39.8506196], [-104.68214, 39.8505002], [-104.6823535, 39.8504983], [-104.6823553, 39.8506177]]]}, "properties": {"height": 8, "night": "#95512e"}}, {"type": "Feature", "geometry": {"type": "Polygon", "coordinates": [[[-104.6826802, 39.8504945], [-104.6825047, 39.8505859], [-104.682413, 39.8504822], [-104.6825885, 39.8503907], [-104.6826802, 39.8504945]]]}, "properties": {"height": 8, "night": "#94502e"}}, {"type": "Feature", "geometry": {"type": "Polygon", "coordinates": [[[-104.6899247, 39.8530229], [-104.6899336, 39.8530545], [-104.6899571, 39.8530844], [-104.6899923, 39.8531064], [-104.6900352, 39.853118], [-104.6900806, 39.8531178], [-104.6901233, 39.8531059], [-104.6901583, 39.8530836], [-104.6901814, 39.8530536], [-104.6901899, 39.8530193], [-104.6901829, 39.8529848], [-104.6901632, 39.8529563], [-104.6901329, 39.8529339], [-104.6900949, 39.8529199], [-104.6900532, 39.8529157], [-104.6900119, 39.8529218], [-104.6899751, 39.8529376], [-104.6899466, 39.8529614], [-104.6899292, 39.8529908], [-104.6899247, 39.8530229]]]}, "properties": {"height": 8, "night": "#7f4426"}}, {"type": "Feature", "geometry": {"type": "Polygon", "coordinates": [[[-104.6721105, 39.8478754], [-104.6721106, 39.8478131], [-104.6721162, 39.8472435], [-104.6720858, 39.8472449], [-104.6720858, 39.8472056], [-104.671142, 39.8471988], [-104.6702765, 39.8471925], [-104.6702736, 39.8474414], [-104.6702689, 39.8478638], [-104.6711293, 39.8478692], [-104.6718725, 39.8478773], [-104.6720384, 39.8478781], [-104.6721105, 39.8478754]]]}, "properties": {"height": 8, "night": "#8b4b2b"}}, {"type": "Feature", "geometry": {"type": "Polygon", "coordinates": [[[-104.6736513, 39.8474378], [-104.673662, 39.8474218], [-104.6736828, 39.8473975], [-104.6737033, 39.8473768], [-104.6737239, 39.8473573], [-104.6737488, 39.84734], [-104.673773, 39.8473244], [-104.673807, 39.8473113], [-104.6738361, 39.8473049], [-104.6738662, 39.8473032], [-104.6738901, 39.8473056], [-104.6739282, 39.8473161], [-104.6739594, 39.8473361], [-104.6739848, 39.8473572], [-104.6740036, 39.8473793], [-104.674019, 39.8474026], [-104.674031, 39.8474189], [-104.6740508, 39.847453], [-104.6740589, 39.8474705], [-104.6740636, 39.8474844], [-104.6740672, 39.8475278], [-104.6740681, 39.8475774], [-104.6740619, 39.8476581], [-104.6740521, 39.8477164], [-104.6740427, 39.8477617], [-104.6740287, 39.8478124], [-104.6740113, 39.8478566], [-104.6739985, 39.8478783], [-104.6739757, 39.8479153], [-104.6739502, 39.8479539], [-104.6739187, 39.847992], [-104.6738959, 39.8480111], [-104.6738725, 39.848025], [-104.6738403, 39.8480332], [-104.6738121, 39.8480306], [-104.673794, 39.8480219], [-104.6737652, 39.8479998], [-104.6737296, 39.8479601], [-104.6737082, 39.8479297], [-104.6736961, 39.8479045], [-104.6736814, 39.8478741], [-104.6736633, 39.8478304], [-104.6736485, 39.8477876], [-104.6736364, 39.8477387], [-104.673625, 39.8476909], [-104.6736141, 39.8476198], [-104.6736153, 39.8475333], [-104.673627, 39.8474829], [-104.6736398, 39.8474551], [-104.6736513, 39.8474378]]]}, "properties": {"height": 8, "night": "#904e2d"}}, {"type": "Feature", "geometry": {"type": "Polygon", "coordinates": [[[-104.6741748, 39.8439379], [-104.6741367, 39.8439406], [-104.6741301, 39.8438844], [-104.6741682, 39.8438818], [-104.6741748, 39.8439379]]]}, "properties": {"height": 8, "night": "#864829"}}, {"type": "Feature", "geometry": {"type": "Polygon", "coordinates": [[[-104.6742921, 39.8734189], [-104.6740865, 39.873417], [-104.6740875, 39.8733514], [-104.6742931, 39.8733533], [-104.6742921, 39.8734189]]]}, "properties": {"height": 8, "night": "#4f2815"}}, {"type": "Feature", "geometry": {"type": "Polygon", "coordinates": [[[-104.6742712, 39.8734995], [-104.6740656, 39.8734977], [-104.6740666, 39.8734321], [-104.6742722, 39.8734339], [-104.6742712, 39.8734995]]]}, "properties": {"height": 8, "night": "#4e2715"}}, {"type": "Feature", "geometry": {"type": "Polygon", "coordinates": [[[-104.6748017, 39.8734805], [-104.6745961, 39.8734787], [-104.6745971, 39.8734131], [-104.6748026, 39.8734149], [-104.6748017, 39.8734805]]]}, "properties": {"height": 8, "night": "#4f2815"}}, {"type": "Feature", "geometry": {"type": "Polygon", "coordinates": [[[-104.6747949, 39.8737945], [-104.6745893, 39.8737927], [-104.6745903, 39.8737271], [-104.6747959, 39.8737289], [-104.6747949, 39.8737945]]]}, "properties": {"height": 8, "night": "#4e2715"}}, {"type": "Feature", "geometry": {"type": "Polygon", "coordinates": [[[-104.6742973, 39.8749875], [-104.6741006, 39.8749897], [-104.6740945, 39.8746662], [-104.6742912, 39.874664], [-104.6742973, 39.8749875]]]}, "properties": {"height": 8, "night": "#4a2513"}}, {"type": "Feature", "geometry": {"type": "Polygon", "coordinates": [[[-104.6743035, 39.874611], [-104.674108, 39.8746114], [-104.6741073, 39.8744208], [-104.6743028, 39.8744204], [-104.6743035, 39.874611]]]}, "properties": {"height": 8, "night": "#4b2514"}}, {"type": "Feature", "geometry": {"type": "Polygon", "coordinates": [[[-104.6858788, 39.8368044], [-104.6858777, 39.8367649], [-104.6858436, 39.8367655], [-104.6858447, 39.8368049], [-104.6858788, 39.8368044]]]}, "properties": {"height": 8, "night": "#6c3920"}}, {"type": "Feature", "geometry": {"type": "Polygon", "coordinates": [[[-104.6858843, 39.8359448], [-104.6858847, 39.8359045], [-104.6858587, 39.8359044], [-104.6858583, 39.8359447], [-104.6858843, 39.8359448]]]}, "properties": {"height": 8, "night": "#69371f"}}, {"type": "Feature", "geometry": {"type": "Polygon", "coordinates": [[[-104.6858959, 39.8350736], [-104.6858946, 39.835033], [-104.6858605, 39.8350337], [-104.6858618, 39.8350742], [-104.6858959, 39.8350736]]]}, "properties": {"height": 8, "night": "#66361e"}}, {"type": "Feature", "geometry": {"type": "Polygon", "coordinates": [[[-104.6873284, 39.8350818], [-104.6873297, 39.8350389], [-104.687302, 39.8350384], [-104.6873006, 39.8350813], [-104.6873284, 39.8350818]]]}, "properties": {"height": 8, "night": "#65351d"}}, {"type": "Feature", "geometry": {"type": "Polygon", "coordinates": [[[-104.6873232, 39.8359526], [-104.6873217, 39.8359146], [-104.687292, 39.8359153], [-104.6872935, 39.8359533], [-104.6873232, 39.8359526]]]}, "properties": {"height": 8, "night": "#68361e"}}, {"type": "Feature", "geometry": {"type": "Polygon", "coordinates": [[[-104.6738512, 39.8624027], [-104.6738521, 39.862185], [-104.673544, 39.8621842], [-104.6735431, 39.862402], [-104.6738512, 39.8624027]]]}, "properties": {"height": 8, "night": "#743e23"}}, {"type": "Feature", "geometry": {"type": "Polygon", "coordinates": [[[-104.6736643, 39.8625011], [-104.6736693, 39.8625087], [-104.6736783, 39.8625146], [-104.6736883, 39.8625182], [-104.6736993, 39.862519], [-104.6737103, 39.862517], [-104.6737193, 39.8625124], [-104.6737273, 39.8625056], [-104.6737313, 39.8624973], [-104.6737313, 39.8624886], [-104.6737273, 39.8624802], [-104.6737203, 39.8624733], [-104.6737113, 39.8624685], [-104.6736993, 39.8624663], [-104.6736883, 39.8624671], [-104.6736783, 39.8624707], [-104.6736693, 39.8624765], [-104.6736643, 39.8624841], [-104.6736623, 39.8624926], [-104.6736643, 39.8625011]]]}, "properties": {"height": 99, "night": "#af916f"}}, {"type": "Feature", "geometry": {"type": "Polygon", "coordinates": [[[-104.6750669, 39.8721159], [-104.6750733, 39.8721183], [-104.6750803, 39.8721189], [-104.6750873, 39.8721178], [-104.6750934, 39.872115], [-104.6750979, 39.8721108], [-104.6751005, 39.8721057], [-104.6751007, 39.8721003], [-104.6750987, 39.8720951], [-104.6750945, 39.8720907], [-104.6750887, 39.8720875], [-104.6750819, 39.872086], [-104.6750749, 39.8720862], [-104.6750683, 39.8720882], [-104.6750629, 39.8720917], [-104.6750592, 39.8720964], [-104.6750578, 39.8721018], [-104.6750587, 39.8721072], [-104.6750618, 39.8721121], [-104.6750669, 39.8721159]]]}, "properties": {"height": 8, "night": "#532a17"}}, {"type": "Feature", "geometry": {"type": "Polygon", "coordinates": [[[-104.6750186, 39.8721169], [-104.6750255, 39.872117], [-104.6750321, 39.8721156], [-104.6750378, 39.8721126], [-104.675042, 39.8721084], [-104.6750445, 39.8721029], [-104.6750443, 39.8720971], [-104.6750416, 39.8720916], [-104.6750366, 39.8720872], [-104.6750299, 39.8720844], [-104.6750224, 39.8720835], [-104.6750149, 39.8720846], [-104.6750084, 39.8720876], [-104.6750036, 39.8720922], [-104.6750012, 39.8720971], [-104.675001, 39.8721024], [-104.6750029, 39.8721075], [-104.6750068, 39.8721118], [-104.6750122, 39.8721151], [-104.6750186, 39.8721169]]]}, "properties": {"height": 8, "night": "#532a17"}}, {"type": "Feature", "geometry": {"type": "Polygon", "coordinates": [[[-104.6749487, 39.8721], [-104.6749493, 39.8721054], [-104.6749521, 39.8721105], [-104.6749569, 39.8721146], [-104.6749631, 39.8721173], [-104.6749701, 39.8721183], [-104.6749772, 39.8721176], [-104.6749836, 39.8721151], [-104.6749888, 39.8721111], [-104.6749919, 39.8721059], [-104.6749927, 39.8721002], [-104.6749909, 39.8720947], [-104.6749868, 39.8720899], [-104.6749809, 39.8720864], [-104.6749739, 39.8720847], [-104.6749667, 39.8720848], [-104.67496, 39.8720866], [-104.6749544, 39.87209], [-104.6749505, 39.8720946], [-104.6749487, 39.8721]]]}, "properties": {"height": 8, "night": "#532a17"}}, {"type": "Feature", "geometry": {"type": "Polygon", "coordinates": [[[-104.6748952, 39.8721117], [-104.6749008, 39.8721157], [-104.6749077, 39.8721181], [-104.6749153, 39.8721187], [-104.6749228, 39.8721174], [-104.6749293, 39.8721144], [-104.6749344, 39.8721097], [-104.6749371, 39.872104], [-104.6749373, 39.8720979], [-104.6749348, 39.8720921], [-104.6749299, 39.8720873], [-104.6749233, 39.872084], [-104.6749156, 39.8720825], [-104.6749077, 39.8720831], [-104.6749005, 39.8720857], [-104.674895, 39.8720897], [-104.6748914, 39.8720949], [-104.6748903, 39.8721007], [-104.6748916, 39.8721065], [-104.6748952, 39.8721117]]]}, "properties": {"height": 8, "night": "#532a17"}}, {"type": "Feature", "geometry": {"type": "Polygon", "coordinates": [[[-104.6748389, 39.8721011], [-104.6748408, 39.8721064], [-104.6748448, 39.872111], [-104.6748505, 39.8721143], [-104.6748573, 39.8721161], [-104.6748645, 39.8721162], [-104.6748717, 39.8721143], [-104.6748777, 39.8721108], [-104.6748818, 39.8721059], [-104.6748835, 39.8721002], [-104.6748826, 39.8720944], [-104.6748793, 39.8720892], [-104.6748739, 39.8720851], [-104.674867, 39.8720827], [-104.6748598, 39.8720821], [-104.6748528, 39.8720833], [-104.6748467, 39.8720862], [-104.674842, 39.8720904], [-104.6748393, 39.8720955], [-104.6748389, 39.8721011]]]}, "properties": {"height": 8, "night": "#532a17"}}, {"type": "Feature", "geometry": {"type": "Polygon", "coordinates": [[[-104.6750849, 39.8720479], [-104.6750911, 39.8720525], [-104.6750988, 39.8720554], [-104.6751074, 39.8720563], [-104.6751159, 39.872055], [-104.6751238, 39.8720515], [-104.6751297, 39.8720461], [-104.6751329, 39.8720395], [-104.6751332, 39.8720325], [-104.6751303, 39.8720259], [-104.6751247, 39.8720203], [-104.675117, 39.8720165], [-104.6751081, 39.8720149], [-104.675099, 39.8720157], [-104.6750912, 39.8720185], [-104.675085, 39.8720231], [-104.6750809, 39.872029], [-104.6750795, 39.8720355], [-104.6750809, 39.872042], [-104.6750849, 39.8720479]]]}, "properties": {"height": 8, "night": "#542b17"}}, {"type": "Feature", "geometry": {"type": "Polygon", "coordinates": [[[-104.6750237, 39.8720397], [-104.6750273, 39.8720454], [-104.675033, 39.8720499], [-104.6750404, 39.8720528], [-104.6750486, 39.8720536], [-104.6750567, 39.8720523], [-104.6750637, 39.8720492], [-104.675069, 39.8720444], [-104.675072, 39.8720387], [-104.6750725, 39.8720324], [-104.6750703, 39.8720264], [-104.6750657, 39.8720213], [-104.6750592, 39.8720176], [-104.6750515, 39.8720156], [-104.6750433, 39.8720157], [-104.6750355, 39.8720178], [-104.6750291, 39.8720218], [-104.6750247, 39.8720272], [-104.6750229, 39.8720334], [-104.6750237, 39.8720397]]]}, "properties": {"height": 8, "night": "#542b17"}}, {"type": "Feature", "geometry": {"type": "Polygon", "coordinates": [[[-104.6749659, 39.8720467], [-104.6749711, 39.8720524], [-104.6749785, 39.8720564], [-104.6749872, 39.8720583], [-104.6749963, 39.8720579], [-104.6750041, 39.8720553], [-104.6750105, 39.8720511], [-104.6750148, 39.8720455], [-104.6750166, 39.8720392], [-104.6750157, 39.8720327], [-104.6750123, 39.8720268], [-104.6750066, 39.872022], [-104.6749992, 39.8720188], [-104.6749909, 39.8720175], [-104.6749819, 39.8720185], [-104.6749739, 39.8720217], [-104.6749677, 39.8720267], [-104.6749641, 39.8720331], [-104.6749635, 39.87204], [-104.6749659, 39.8720467]]]}, "properties": {"height": 8, "night": "#542b17"}}, {"type": "Feature", "geometry": {"type": "Polygon", "coordinates": [[[-104.6749163, 39.8720512], [-104.6749239, 39.8720547], [-104.6749327, 39.872056], [-104.6749411, 39.8720551], [-104.6749487, 39.8720523], [-104.6749547, 39.8720477], [-104.6749585, 39.8720419], [-104.6749597, 39.8720354], [-104.6749581, 39.872029], [-104.674954, 39.8720233], [-104.6749478, 39.8720189], [-104.67494, 39.8720163], [-104.6749316, 39.8720157], [-104.6749233, 39.8720172], [-104.6749158, 39.8720208], [-104.6749102, 39.8720262], [-104.6749074, 39.8720327], [-104.6749075, 39.8720395], [-104.6749106, 39.8720459], [-104.6749163, 39.8720512]]]}, "properties": {"height": 8, "night": "#542a17"}}, {"type": "Feature", "geometry": {"type": "Polygon", "coordinates": [[[-104.6748547, 39.8720437], [-104.67486, 39.872049], [-104.6748673, 39.8720526], [-104.6748757, 39.8720541], [-104.6748838, 39.8720535], [-104.6748913, 39.872051], [-104.6748974, 39.8720468], [-104.6749014, 39.8720413], [-104.6749029, 39.8720351], [-104.6749018, 39.8720289], [-104.6748982, 39.8720232], [-104.6748925, 39.8720188], [-104.6748852, 39.8720159], [-104.6748771, 39.8720149], [-104.6748686, 39.8720161], [-104.6748611, 39.8720194], [-104.6748554, 39.8720245], [-104.6748523, 39.8720307], [-104.674852, 39.8720374], [-104.6748547, 39.8720437]]]}, "properties": {"height": 8, "night": "#542a17"}}, {"type": "Feature", "geometry": {"type": "Polygon", "coordinates": [[[-104.6915603, 39.8590113], [-104.6915621, 39.8589661], [-104.6914612, 39.8589636], [-104.6914633, 39.8589118], [-104.6911194, 39.8589036], [-104.6911155, 39.8590007], [-104.691337, 39.859006], [-104.6915603, 39.8590113]]]}, "properties": {"height": 8, "night": "#713c22"}}, {"type": "Feature", "geometry": {"type": "Polygon", "coordinates": [[[-104.6884574, 39.8496125], [-104.6884521, 39.8494868], [-104.6882561, 39.8494917], [-104.6882613, 39.8496173], [-104.6884574, 39.8496125]]]}, "properties": {"height": 8, "night": "#844728"}}, {"type": "Feature", "geometry": {"type": "Polygon", "coordinates": [[[-104.6883656, 39.8496318], [-104.6883655, 39.8496141], [-104.688365, 39.8495409], [-104.688307, 39.8495873], [-104.6883656, 39.8496318]]]}, "properties": {"height": 8, "night": "#844728"}}, {"type": "Feature", "geometry": {"type": "Polygon", "coordinates": [[[-104.6883656, 39.8496318], [-104.6882503, 39.8496318], [-104.688307, 39.8495873], [-104.6883656, 39.8496318]]]}, "properties": {"height": 3, "night": "#733319"}}, {"type": "Feature", "geometry": {"type": "Polygon", "coordinates": [[[-104.688307, 39.8495873], [-104.688246, 39.8495418], [-104.68825, 39.8496255], [-104.6882503, 39.8496318], [-104.688307, 39.8495873]]]}, "properties": {"height": 8, "night": "#844728"}}, {"type": "Feature", "geometry": {"type": "Polygon", "coordinates": [[[-104.688365, 39.8495409], [-104.688246, 39.8495418], [-104.688307, 39.8495873], [-104.688365, 39.8495409]]]}, "properties": {"height": 8, "night": "#844728"}}, {"type": "Feature", "geometry": {"type": "Polygon", "coordinates": [[[-104.682462, 39.8513116], [-104.6824087, 39.8512661], [-104.6823514, 39.8513101], [-104.682462, 39.8513116]]]}, "properties": {"height": 8, "night": "#94502e"}}, {"type": "Feature", "geometry": {"type": "Polygon", "coordinates": [[[-104.682462, 39.8513116], [-104.682463, 39.8512214], [-104.6824087, 39.8512661], [-104.682462, 39.8513116]]]}, "properties": {"height": 8, "night": "#94502e"}}, {"type": "Feature", "geometry": {"type": "Polygon", "coordinates": [[[-104.682463, 39.8512214], [-104.6823514, 39.8512198], [-104.6824087, 39.8512661], [-104.682463, 39.8512214]]]}, "properties": {"height": 8, "night": "#94502e"}}, {"type": "Feature", "geometry": {"type": "Polygon", "coordinates": [[[-104.6823514, 39.8513101], [-104.6823514, 39.8512198], [-104.6824087, 39.8512661], [-104.6823514, 39.8513101]]]}, "properties": {"height": 8, "night": "#94502e"}}, {"type": "Feature", "geometry": {"type": "Polygon", "coordinates": [[[-104.6768846, 39.8482182], [-104.6768965, 39.8482066], [-104.676865, 39.8481875], [-104.6768531, 39.8481991], [-104.6768846, 39.8482182]]]}, "properties": {"height": 8, "night": "#97522f"}}, {"type": "Feature", "geometry": {"type": "Polygon", "coordinates": [[[-104.6795275, 39.8511656], [-104.6793768, 39.8511631], [-104.6794617, 39.8508133], [-104.6794659, 39.8507962], [-104.6795067, 39.8506326], [-104.6795067, 39.8506033], [-104.6795, 39.8505764], [-104.6794912, 39.8505636], [-104.6794859, 39.850556], [-104.6795131, 39.8505552], [-104.6796757, 39.8505559], [-104.6796948, 39.8505547], [-104.679649, 39.8506084], [-104.6796077, 39.8507968], [-104.6795275, 39.8511656]]]}, "properties": {"height": 3, "night": "#863c1d"}}, {"type": "Feature", "geometry": {"type": "Polygon", "coordinates": [[[-104.6796757, 39.8505559], [-104.6796761, 39.8505006], [-104.6796761, 39.8504982], [-104.6795135, 39.8504975], [-104.6795131, 39.8505552], [-104.6796757, 39.8505559]]]}, "properties": {"height": 3, "night": "#863c1d"}}, {"type": "Feature", "geometry": {"type": "Polygon", "coordinates": [[[-104.6791202, 39.8498372], [-104.6791202, 39.8498038], [-104.6791, 39.8498038], [-104.6791, 39.8498372], [-104.6791202, 39.8498372]]]}, "properties": {"height": 8, "night": "#9c5531"}}, {"type": "Feature", "geometry": {"type": "Polygon", "coordinates": [[[-104.6782922, 39.8454731], [-104.6782926, 39.8454374], [-104.6782704, 39.8454373], [-104.67827, 39.8454729], [-104.6782922, 39.8454731]]]}, "properties": {"height": 8, "night": "#8e4d2c"}}, {"type": "Feature", "geometry": {"type": "Polygon", "coordinates": [[[-104.6782847, 39.8462907], [-104.6782866, 39.8462548], [-104.678262, 39.8462541], [-104.6782602, 39.8462899], [-104.6782847, 39.8462907]]]}, "properties": {"height": 8, "night": "#914f2d"}}, {"type": "Feature", "geometry": {"type": "Polygon", "coordinates": [[[-104.6782714, 39.8471128], [-104.6782724, 39.847079], [-104.6782501, 39.8470786], [-104.678249, 39.8471124], [-104.6782714, 39.8471128]]]}, "properties": {"height": 8, "night": "#94502e"}}, {"type": "Feature", "geometry": {"type": "Polygon", "coordinates": [[[-104.6805132, 39.8463083], [-104.6805135, 39.8462731], [-104.6804903, 39.846273], [-104.68049, 39.8463082], [-104.6805132, 39.8463083]]]}, "properties": {"height": 8, "night": "#904e2d"}}, {"type": "Feature", "geometry": {"type": "Polygon", "coordinates": [[[-104.6805019, 39.8471348], [-104.6805028, 39.8471013], [-104.6804798, 39.8471009], [-104.680479, 39.8471128], [-104.680479, 39.8471345], [-104.6805019, 39.8471348]]]}, "properties": {"height": 8, "night": "#92502d"}}, {"type": "Feature", "geometry": {"type": "Polygon", "coordinates": [[[-104.6804725, 39.8489442], [-104.6804724, 39.848909], [-104.6804503, 39.8489091], [-104.6804504, 39.8489442], [-104.6804725, 39.8489442]]]}, "properties": {"height": 8, "night": "#97532f"}}, {"type": "Feature", "geometry": {"type": "Polygon", "coordinates": [[[-104.680465, 39.8497686], [-104.6804655, 39.8497351], [-104.6804453, 39.849735], [-104.6804449, 39.8497684], [-104.680465, 39.8497686]]]}, "properties": {"height": 8, "night": "#995330"}}, {"type": "Feature", "geometry": {"type": "Polygon", "coordinates": [[[-104.6707594, 39.8391917], [-104.6707348, 39.8391388], [-104.6706903, 39.839151], [-104.6707149, 39.8392039], [-104.6707594, 39.8391917]]]}, "properties": {"height": 8, "night": "#733d22"}}, {"type": "Feature", "geometry": {"type": "Polygon", "coordinates": [[[-104.6707559, 39.8387257], [-104.6707483, 39.838669], [-104.6707029, 39.8386726], [-104.6707104, 39.8387292], [-104.6707559, 39.8387257]]]}, "properties": {"height": 8, "night": "#723c22"}}, {"type": "Feature", "geometry": {"type": "Polygon", "coordinates": [[[-104.6707264, 39.8386172], [-104.6707566, 39.8385913], [-104.6707022, 39.8385537], [-104.6706719, 39.8385796], [-104.6707264, 39.8386172]]]}, "properties": {"height": 8, "night": "#723c22"}}, {"type": "Feature", "geometry": {"type": "Polygon", "coordinates": [[[-104.6918901, 39.8325079], [-104.6918952, 39.8323055], [-104.6916823, 39.8323023], [-104.691578, 39.8323008], [-104.6915789, 39.8322675], [-104.6913421, 39.832264], [-104.6913462, 39.8322776], [-104.6912609, 39.8322764], [-104.6912548, 39.8325205], [-104.6913435, 39.8325218], [-104.6913431, 39.8325348], [-104.6915468, 39.8325378], [-104.6915476, 39.8325028], [-104.6916851, 39.8325048], [-104.6918901, 39.8325079]]]}, "properties": {"height": 8, "night": "#582d18"}}, {"type": "Feature", "geometry": {"type": "Polygon", "coordinates": [[[-104.6648279, 39.8408664], [-104.6648283, 39.8408396], [-104.6647552, 39.840839], [-104.6647548, 39.8408658], [-104.6648279, 39.8408664]]]}, "properties": {"height": 8, "night": "#6e3a21"}}, {"type": "Feature", "geometry": {"type": "Polygon", "coordinates": [[[-104.6723842, 39.8536177], [-104.6723833, 39.8535834], [-104.6723097, 39.8535846], [-104.6723106, 39.8536189], [-104.6723842, 39.8536177]]]}, "properties": {"height": 8, "night": "#8c4c2b"}}, {"type": "Feature", "geometry": {"type": "Polygon", "coordinates": [[[-104.6884296, 39.8494626], [-104.6884099, 39.849463], [-104.6884095, 39.8494493], [-104.6884301, 39.8494489], [-104.6884296, 39.8494626]]]}, "properties": {"height": 8, "night": "#844728"}}, {"type": "Feature", "geometry": {"type": "Polygon", "coordinates": [[[-104.6812827, 39.8517382], [-104.6812585, 39.851753], [-104.6813002, 39.8517932], [-104.6813244, 39.8517784], [-104.6812827, 39.8517382]]]}, "properties": {"height": 8, "night": "#96522f"}}]}